{"type": "FeatureCollection", "features": [{"type": "Feature", "geometry": {"type": "Point", "coordinates": [-6.2486223, 53.3527999]}, "properties": {"bench": "no", "bus": "yes", "covered": "no", "highway": "bus_stop", "lit": "yes", "name": "Amiens Street, Connolly Station", "name:en": "Amiens Street, Connolly Station", "name:ga": "Sraid Amiens, St\u00e1isi\u00fan U\u00ed Chongaile", "network": "Transport for Ireland", "network:website": "https://www.transportforireland.ie/", "network:wikidata": "Q17100681", "network:wikipedia": "en:National Transport Authority (Ireland)", "operator": "Dublin Bus", "public_transport": "platform", "ref": "675", "shelter": "no", "tactile_paving": "yes", "website": "https://www.transportforireland.ie/plan-a-journey/live-departures/?stopId=8220DB000675", "osm_type": "node", "osm_id": 249429118}}, {"type": "Feature", "geometry": {"type": "Point", "coordinates": [-6.2783016, 53.3456798]}, "properties": {"bench": "yes", "bus": "yes", "covered": "yes", "highway": "bus_stop", "name": "Usher's Quay", "public_transport": "platform", "ref": "10997", "shelter": "yes", "osm_type": "node", "osm_id": 255016985}}, {"type": "Feature", "geometry": {"type": "Point", "coordinates": [-6.2179437, 53.3098648]}, "properties": {"bench": "no", "bin": "no", "bus": "yes", "covered": "no", "highway": "bus_stop", "kerb": "raised", "kerb:approach_aid": "no", "lit": "yes", "name": "#764 Stillorgan Road, UCD (set-down)", "network": "Dublin Bus", "network:wikidata": "Q1263090", "network:wikipedia": "en:Dublin Bus", "note": "Set-down stop only for buses that terminate on UCD campus.", "operator": "Dublin Bus", "passenger_information_display": "no", "public_transport": "platform", "ref": "764", "route_ref": "39a", "set_down": "yes", "shelter": "no", "website": "https://www.transportforireland.ie/plan-a-journey/live-departures/?stopId=8250DB000764", "osm_type": "node", "osm_id": 255018696}}, {"type": "Feature", "geometry": {"type": "Point", "coordinates": [-6.26068, 53.3472503]}, "properties": {"bench": "no", "bin": "yes", "bus": "yes", "highway": "bus_stop", "lit": "yes", "local_ref": "EM", "name": "Bachelor's Walk, Arlington Hotel", "name:en": "Bachelor's Walk, Arlington Hotel", "name:ga": "Si\u00fal\u00e1n Bhaitsil\u00e9ir, \u00d3st\u00e1n Arlington", "network": "Dublin Bus", "network:wikidata": "Q1263090", "network:wikipedia": "en:Dublin Bus", "operator": "Dublin Bus", "passenger_information_display": "no", "public_transport": "platform", "ref": "316", "route_ref": "90", "shelter": "no", "tactile_paving": "no", "website": "https://www.transportforireland.ie/plan-a-journey/live-departures/?stopId=8220DB000316", "wheelchair": "limited", "osm_type": "node", "osm_id": 273116317}}, {"type": "Feature", "geometry": {"type": "Point", "coordinates": [-6.297073, 53.3437719]}, "properties": {"bench": "no", "bin": "no", "bus": "yes", "check_date:shelter": "2025-07-03", "highway": "bus_stop", "lit": "yes", "name": "Royal Hospital Kilmainham", "operator": "Dublin Tour", "public_transport": "platform", "ref": "14a", "shelter": "no", "tactile_paving": "no", "osm_type": "node", "osm_id": 279924689}}, {"type": "Feature", "geometry": {"type": "Point", "coordinates": [-6.3032457, 53.3670973]}, "properties": {"bench": "no", "bin": "no", "bus": "yes", "highway": "bus_stop", "lit": "yes", "name": "Nephin Road, Saint Declan's CBS", "network": "Dublin Bus", "network:wikidata": "Q1263090", "network:wikipedia": "en:Dublin Bus", "operator": "Dublin Bus", "public_transport": "platform", "ref": "4498", "shelter": "no", "website": "https://www.transportforireland.ie/plan-a-journey/live-departures/?stopId=8220DB004498", "osm_type": "node", "osm_id": 440849968}}, {"type": "Feature", "geometry": {"type": "Point", "coordinates": [-6.2503581, 53.3756277]}, "properties": {"bench": "yes", "bin": "yes", "bus": "yes", "colour": "green", "departures_board": "timetable", "highway": "bus_stop", "lit": "yes", "man_made": "street_cabinet", "name": "#203 Swords Road, Whitehall College", "network": "Dublin Bus", "network:wikidata": "Q1263090", "network:wikipedia": "en:Dublin Bus", "operator": "Dublin Bus", "passenger_information_display": "no", "public_transport": "platform", "ref": "203", "route_ref": "1;16;33;41;41b;41c;44", "shelter": "yes", "tactile_paving": "yes", "website": "https://www.transportforireland.ie/plan-a-journey/live-departures/?stopId=8220DB000203", "wheelchair": "yes", "osm_type": "node", "osm_id": 500320851}}, {"type": "Feature", "geometry": {"type": "Point", "coordinates": [-6.259017, 53.317806]}, "properties": {"bench": "no", "bus": "yes", "disused": "yes", "highway": "bus_stop", "lit": "yes", "name": "Palmerston Road", "network": "Dublin Bus", "network:wikidata": "Q1263090", "network:wikipedia": "en:Dublin Bus", "operator": "Dublin Bus", "passenger_information_display": "no", "public_transport": "platform", "shelter": "no", "surface": "concrete", "osm_type": "node", "osm_id": 565037678}}, {"type": "Feature", "geometry": {"type": "Point", "coordinates": [-6.2594991, 53.3203471]}, "properties": {"bench": "no", "bus": "yes", "disused": "yes", "highway": "bus_stop", "lit": "yes", "name": "Palmerston Road", "network": "Dublin Bus", "network:wikidata": "Q1263090", "network:wikipedia": "en:Dublin Bus", "operator": "Dublin Bus", "passenger_information_display": "no", "public_transport": "platform", "shelter": "no", "surface": "concrete", "osm_type": "node", "osm_id": 565037716}}, {"type": "Feature", "geometry": {"type": "Point", "coordinates": [-6.2530484, 53.3473415]}, "properties": {"alt_name": "Dublin Ulster Bank Georges Quay", "bench": "no", "bin": "yes", "bus": "yes", "check_date:bench": "2022-06-16", "covered": "no", "highway": "bus_stop", "lit": "yes", "name": "George's Quay", "network": "J.J. Kavanagh & Sons", "note": "To Waterford, Carlow, and Limerick (Shannon) also.", "operator": "J.J. Kavanagh & Sons", "public_transport": "platform", "route:ref": "736;735", "shelter": "no", "source": "survey", "tactile_paving": "no", "wheelchair": "limited", "osm_type": "node", "osm_id": 612418023}}, {"type": "Feature", "geometry": {"type": "Point", "coordinates": [-6.2535446, 53.3473592]}, "properties": {"bench": "no", "bin": "yes", "bus": "yes", "covered": "no", "disused": "yes", "highway": "bus_stop", "lit": "yes", "name": "George's Quay", "network": "Dublin Bus", "network:wikidata": "Q1263090", "network:wikipedia": "en:Dublin Bus", "operator": "Dublin Bus", "public_transport": "platform", "route_ref": "128;151", "shelter": "no", "source": "survey", "tactile_paving": "no", "wheelchair": "limited", "osm_type": "node", "osm_id": 612420747}}, {"type": "Feature", "geometry": {"type": "Point", "coordinates": [-6.2527234, 53.3473261]}, "properties": {"bench": "no", "bin": "yes", "bus": "yes", "covered": "no", "highway": "bus_stop", "lit": "yes", "name": "George's Quay", "network": "Dublin Commuter", "operator": "Go-Ahead Ireland", "public_transport": "platform", "route_ref": "126;130", "shelter": "no", "tactile_paving": "no", "wheelchair": "limited", "osm_type": "node", "osm_id": 612420748}}, {"type": "Feature", "geometry": {"type": "Point", "coordinates": [-6.226816, 53.364115]}, "properties": {"alt_name": "Clontarf Road, DART Station", "bench": "no", "bin": "no", "bus": "yes", "highway": "bus_stop", "lit": "yes", "name": "Clontarf Station", "name:ga": "B\u00f3thar Chluain Tarbh, St\u00e1isi\u00fan DART", "network": "Transport for Ireland", "network:website": "https://www.transportforireland.ie/", "network:wikidata": "Q17100681", "network:wikipedia": "en:National Transport Authority (Ireland)", "operator": "Dublin Bus", "public_transport": "platform", "ref": "1740", "shelter": "no", "tactile_paving": "yes", "website": "https://www.transportforireland.ie/plan-a-journey/live-departures/?stopId=8250DB001740/", "wheelchair": "yes", "osm_type": "node", "osm_id": 622047502}}, {"type": "Feature", "geometry": {"type": "Point", "coordinates": [-6.2524819, 53.3497444]}, "properties": {"bench": "no", "bus": "yes", "covered": "no", "fixme": "Check ref.", "highway": "bus_stop", "lit": "yes", "name": "Bus\u00e1ras", "network": "Airlink Express", "network:website": "https://www.transportforireland.ie/", "not:network:wikidata": "Q1263090", "note": "Stop 4 for Airlink routes 747;757", "operator": "Dublin Bus", "public_transport": "platform", "ref": "134961", "route_ref": "747;757", "shelter": "yes", "website": "https://airlinkexpress.ie/", "osm_type": "node", "osm_id": 634781938}}, {"type": "Feature", "geometry": {"type": "Point", "coordinates": [-6.2565519, 53.3459968]}, "properties": {"bench": "no", "bin": "no", "bus": "yes", "highway": "bus_stop", "lit": "yes", "local_ref": "CR", "name": "South Townsend St", "name:ga": "Sr Chnoc na Lobhar", "network": "Transport for Ireland", "network:wikidata": "Q17100681", "network:wikipedia": "en:National Transport Authority (Ireland)", "operator": "Bus \u00c9ireann", "passenger_information_display": "no", "public_transport": "platform", "ref": "341", "route_ref": "133;133x", "shelter": "no", "tactile_paving": "no", "website": "https://www.transportforireland.ie/plan-a-journey/live-departures/?stopId=8220DB000341", "wheelchair": "limited", "osm_type": "node", "osm_id": 634881506}}, {"type": "Feature", "geometry": {"type": "Point", "coordinates": [-6.2633971, 53.3519998]}, "properties": {"bench": "no", "bin": "yes", "bus": "yes", "disused": "yes", "highway": "bus_stop", "lit": "yes", "local_ref": "PA", "name": "Parnell Square West", "name:en": "Parnell Square West", "name:ga": "Cearn\u00f3g Pharnell Thiar", "network": "Dublin Bus", "network:wikidata": "Q1263090", "network:wikipedia": "en:Dublin Bus", "operator": "Dublin Bus", "passenger_information_display": "no", "pole": "yes", "public_transport": "platform", "ref": "2", "shelter": "no", "tactile_paving": "no", "wheelchair": "limited", "osm_type": "node", "osm_id": 650240055}}, {"type": "Feature", "geometry": {"type": "Point", "coordinates": [-6.2693082, 53.3550108]}, "properties": {"bench": "no", "bin": "no", "bus": "yes", "check_date": "2026-02-22", "check_date:tactile_paving": "2026-02-22", "highway": "bus_stop", "lit": "yes", "mapillary": "tA1N4oF6SMtArzfM3yrmTg", "name": "#191 Western Way, Youth Club", "network": "Transport for Ireland", "network:wikidata": "Q17100681", "network:wikipedia": "en:National Transport Authority (Ireland)", "operator": "Dublin Bus", "pole": "yes", "public_transport": "platform", "ref": "191", "shelter": "no", "surface": "concrete", "tactile_paving": "no", "website": "https://www.transportforireland.ie/plan-a-journey/live-departures/?stopId=8220DB000191", "osm_type": "node", "osm_id": 650345840}}, {"type": "Feature", "geometry": {"type": "Point", "coordinates": [-6.2259726, 53.3507872]}, "properties": {"bench": "no", "bin": "no", "bus": "yes", "highway": "bus_stop", "lit": "yes", "name": "East Wall Road", "network": "Swords Express", "operator": "Swords Express", "public_transport": "platform", "ref": "9080", "shelter": "no", "tactile_paving": "yes", "website": "https://www.transportforireland.ie/plan-a-journey/live-departures/?stopId=8220DB009080", "osm_type": "node", "osm_id": 840176500}}, {"type": "Feature", "geometry": {"type": "Point", "coordinates": [-6.2535962, 53.3473608]}, "properties": {"bench": "no", "bin": "yes", "bus": "yes", "check_date:bench": "2022-06-16", "covered": "no", "highway": "bus_stop", "lit": "yes", "name": "George's Quay", "network": "Swords Express", "operator": "Swords Express", "public_transport": "platform", "ref": "9090", "shelter": "no", "source": "survey", "tactile_paving": "no", "wheelchair": "no", "osm_type": "node", "osm_id": 840178308}}, {"type": "Feature", "geometry": {"type": "Point", "coordinates": [-6.2584151, 53.347809]}, "properties": {"bench": "no", "bin": "yes", "bus": "yes", "highway": "bus_stop", "lit": "yes", "name": "Eden Quay", "network": "Swords Express", "operator": "Swords Express", "public_transport": "platform", "ref": "9001", "shelter": "no", "tactile_paving": "no", "osm_type": "node", "osm_id": 840183655}}, {"type": "Feature", "geometry": {"type": "Point", "coordinates": [-6.2673261, 53.3445526]}, "properties": {"bench": "no", "bin": "yes", "bus": "yes", "highway": "bus_stop", "lit": "yes", "name": "Parliament Street", "network": "Dublin Bus", "network:wikidata": "Q1263090", "network:wikipedia": "en:Dublin Bus", "operator": "Dublin Bus", "public_transport": "platform", "ref": "2912", "shelter": "no", "tactile_paving": "no", "website": "https://www.transportforireland.ie/plan-a-journey/live-departures/?stopId=8220DB002912", "osm_type": "node", "osm_id": 842484737}}, {"type": "Feature", "geometry": {"type": "Point", "coordinates": [-6.2586654, 53.3401004]}, "properties": {"bench": "no", "bin": "yes", "bus": "yes", "fixme": "Make part of 100x route", "highway": "bus_stop", "name": "Dawson Street", "name:en": "Dawson Street", "name:ga": "Sr\u00e1id D\u00e1sain", "network": "Transport for Ireland", "network:wikidata": "Q17100681", "network:wikipedia": "en:National Transport Authority (Ireland)", "operator": "Bus \u00c9ireann", "public_transport": "platform", "route_ref": "100X;125;133", "shelter": "no", "osm_type": "node", "osm_id": 877759892}}, {"type": "Feature", "geometry": {"type": "Point", "coordinates": [-6.2564145, 53.3473593]}, "properties": {"bench": "no", "bin": "yes", "bus": "yes", "covered": "no", "highway": "bus_stop", "lit": "yes", "name": "Burgh Quay", "operator": "Dublin Express", "public_transport": "platform", "ref": "339", "shelter": "no", "source": "survey", "tactile_paving": "no", "wheelchair": "yes", "osm_type": "node", "osm_id": 906787354}}, {"type": "Feature", "geometry": {"type": "Point", "coordinates": [-6.2525787, 53.3473281]}, "properties": {"bench": "no", "bin": "yes", "bus": "yes", "departures_board": "timetable", "flag": "yes", "highway": "bus_stop", "lit": "yes", "name": "Dublin (George's Quay)", "name:en": "Dublin (George's Quay)", "name:ga": "Baile \u00c1tha Cliath (C\u00e9 Sheoirse)", "network": "Wexford Bus", "network:wikidata": "Q117196712", "operator": "Wexford Bus", "operator:website": "https://www.wexfordbus.com/", "operator:wikidata": "Q117196712", "passenger_information_display": "no", "pole": "yes", "public_transport": "platform", "route_ref": "740;740X", "shelter": "no", "tactile_paving": "no", "website": "https://www.transportforireland.ie/plan-a-journey/live-departures/?stopId=8220000357", "wheelchair": "limited", "osm_type": "node", "osm_id": 906787362}}, {"type": "Feature", "geometry": {"type": "Point", "coordinates": [-6.2533258, 53.3473564]}, "properties": {"bench": "no", "bus": "yes", "covered": "no", "highway": "bus_stop", "lit": "yes", "name": "George's Quay", "network": "Dublin Commuter", "operator": "Go-Ahead Ireland", "public_transport": "platform", "ref": "135141", "route_ref": "120;120B;120F;120X;126;126A;126D;126N;126T;126X;130", "shelter": "no", "tactile_paving": "no", "wheelchair": "limited", "osm_type": "node", "osm_id": 906787367}}, {"type": "Feature", "geometry": {"type": "Point", "coordinates": [-6.2568613, 53.3473021]}, "properties": {"bench": "no", "bin": "yes", "bus": "yes", "covered": "no", "departures_board": "no", "highway": "bus_stop", "lit": "yes", "name": "Burgh Quay", "network": "Dublin Bus", "network:wikidata": "Q1263090", "network:wikipedia": "en:Dublin Bus", "operator": "Dublin Bus;gobus.ie", "public_transport": "platform", "ref": "339", "route_ref": "27x", "shelter": "no", "source": "survey", "tactile_paving": "no", "website": "https://www.transportforireland.ie/plan-a-journey/live-departures/?stopId=8220DB000339", "wheelchair": "limited", "osm_type": "node", "osm_id": 906855201}}, {"type": "Feature", "geometry": {"type": "Point", "coordinates": [-6.2567415, 53.3473194]}, "properties": {"bench": "no", "bin": "yes", "bus": "yes", "covered": "no", "highway": "bus_stop", "lit": "yes", "name": "Irish Citylink Galway", "network": "Irish Citylink", "network:wikidata": "Q15712847", "network:wikipedia": "en:Irish Citylink", "operator": "Irish Citylink", "public_transport": "platform", "ref": "300", "shelter": "no", "source": "survey", "tactile_paving": "no", "wheelchair": "limited", "osm_type": "node", "osm_id": 906855204}}, {"type": "Feature", "geometry": {"type": "Point", "coordinates": [-6.2396797, 53.3372205]}, "properties": {"bench": "no", "bus": "yes", "disused": "yes", "highway": "bus_stop", "lit": "yes", "network": "Aircoach", "network:wikidata": "Q4698488", "network:wikipedia": "en:Aircoach", "operator": "Aircoach", "passenger_information_display": "no", "public_transport": "platform", "shelter": "no", "website": "https://tracker.aircoach.ie/stops/822000386/", "osm_type": "node", "osm_id": 940046735}}, {"type": "Feature", "geometry": {"type": "Point", "coordinates": [-6.2425674, 53.3515739]}, "properties": {"bench": "no", "bin": "yes", "bus": "yes", "highway": "bus_stop", "lit": "yes", "name": "Seville Place, Sheriff Street Upper", "network": "Dublin Bus", "network:wikidata": "Q1263090", "network:wikipedia": "en:Dublin Bus", "operator": "Dublin Bus", "pole": "yes", "public_transport": "platform", "ref": "7706", "shelter": "no", "source:ref": "https://www.dublinbus.ie/RTPI/Sources-of-Real-Time-Information/?searchtype=view&searchquery=7706", "surface": "concrete", "was:ref": "7030", "website": "https://www.transportforireland.ie/plan-a-journey/live-departures/?stopId=8220DB007706", "wheelchair": "yes", "osm_type": "node", "osm_id": 995503693}}, {"type": "Feature", "geometry": {"type": "Point", "coordinates": [-6.2585405, 53.3477782]}, "properties": {"bench": "no", "bin": "yes", "bus": "yes", "highway": "bus_stop", "lit": "yes", "name": "Dublin, Eden Quay", "network": "J.J. Kavanagh & Sons", "note": "Set down only.\n\nJ.J. Kavanagh & Sons buses stop here, but there doesn't seem to be a bus pole.", "operator": "J.J. Kavanagh & Sons", "public_transport": "platform", "ref": "7359", "shelter": "no", "tactile_paving": "no", "osm_type": "node", "osm_id": 1050513512}}, {"type": "Feature", "geometry": {"type": "Point", "coordinates": [-6.2271788, 53.3481317]}, "properties": {"bench": "no", "bin": "no", "bus": "yes", "check_date:bench": "2024-08-26", "covered": "no", "highway": "bus_stop", "name": "Point Depot (East Wall Road)", "network": "Swords Express", "operator": "Swords Express", "public_transport": "platform", "ref": "9007", "shelter": "no", "tactile_paving": "yes", "osm_type": "node", "osm_id": 1150884144}}, {"type": "Feature", "geometry": {"type": "Point", "coordinates": [-6.2271803, 53.3481097]}, "properties": {"bench": "no", "bin": "no", "bus": "yes", "covered": "no", "highway": "bus_stop", "lit": "yes", "name": "East Wall Road", "network": "Transport for Ireland", "network:website": "https://www.transportforireland.ie/", "network:wikidata": "Q17100681", "operator": "Dublin Bus", "public_transport": "platform", "ref": "2507", "shelter": "no", "tactile_paving": "yes", "website": "https://www.transportforireland.ie/plan-a-journey/live-departures/?stopId=8220DB002507", "osm_type": "node", "osm_id": 1163627565}}, {"type": "Feature", "geometry": {"type": "Point", "coordinates": [-6.2584553, 53.3477992]}, "properties": {"bench": "no", "bin": "yes", "bus": "yes", "highway": "bus_stop", "lit": "yes", "name": "Eden Quay", "name:en": "Eden Quay", "name:ga": "C\u00e9 Eden", "network": "Transport for Ireland", "network:website": "https://www.transportforireland.ie/", "network:wikidata": "Q17100681", "operator": "Bus \u00c9ireann", "public_transport": "platform", "ref": "135351", "route_ref": "22", "shelter": "no", "tactile_paving": "yes", "wheelchair": "yes", "osm_type": "node", "osm_id": 1163652218}}, {"type": "Feature", "geometry": {"type": "Point", "coordinates": [-6.2271784, 53.3481201]}, "properties": {"bench": "no", "bin": "no", "bus": "yes", "highway": "bus_stop", "lit": "yes", "name": "The 'O2' / Point Depot - (East Wall Road)", "network": "Aircoach", "network:wikidata": "Q4698488", "network:wikipedia": "en:Aircoach", "operator": "Aircoach", "public_transport": "platform", "shelter": "no", "tactile_paving": "yes", "osm_type": "node", "osm_id": 1163654404}}, {"type": "Feature", "geometry": {"type": "Point", "coordinates": [-6.2741319, 53.3111882]}, "properties": {"bench": "no", "bus": "yes", "departures_board": "no", "disused": "yes", "highway": "bus_stop", "lit": "yes", "network": "Transport for Ireland", "network:wikidata": "Q17100681", "network:wikipedia": "en:National Transport Authority (Ireland)", "operator": "Dublin Bus", "passenger_information_display": "no", "pole": "no", "public_transport": "platform", "ref": "3002", "shelter": "no", "surface": "concrete", "tactile_paving": "no", "tactile_writing:braille:en": "yes", "website": "https://www.transportforireland.ie/plan-a-journey/live-departures/?stopId=8220DB003002", "wheelchair": "limited", "osm_type": "node", "osm_id": 1218877667}}, {"type": "Feature", "geometry": {"type": "Point", "coordinates": [-6.2639436, 53.3337882]}, "properties": {"bench": "no", "bus": "yes", "highway": "bus_stop", "lit": "yes", "name": "Charlotte Way", "network": "Dublin Bus", "network:wikidata": "Q1263090", "network:wikipedia": "en:Dublin Bus", "operator": "Dublin Bus", "passenger_information_display": "yes", "public_transport": "platform", "ref": "1074", "route_ref": "44;61;757", "shelter": "yes", "website": "https://www.transportforireland.ie/plan-a-journey/live-departures/?stopId=8220DB001074", "osm_type": "node", "osm_id": 1316646538}}, {"type": "Feature", "geometry": {"type": "Point", "coordinates": [-6.2575036, 53.335476]}, "properties": {"bench": "no", "bus": "yes", "highway": "bus_stop", "lit": "yes", "name": "Earlsfort Terrace", "network": "Dublin Bus", "network:wikidata": "Q1263090", "network:wikipedia": "en:Dublin Bus", "operator": "Dublin Bus", "passenger_information_display": "no", "public_transport": "platform", "ref": "1013", "route_ref": "44;61;142", "shelter": "yes", "shelter_ref": "02-525", "tactile_paving": "no", "website": "https://www.transportforireland.ie/plan-a-journey/live-departures/?stopId=8220DB001013", "osm_type": "node", "osm_id": 1348263290}}, {"type": "Feature", "geometry": {"type": "Point", "coordinates": [-6.2619349, 53.3133137]}, "properties": {"bench": "no", "bus": "yes", "covered": "no", "highway": "bus_stop", "lit": "yes", "name": "Palmerston Park", "network": "Transport for Ireland", "network:wikidata": "Q17100681", "network:wikipedia": "en:National Transport Authority (Ireland)", "note": "Dublin Bus route 140 - terminating stop.", "operator": "Dublin Bus", "public_transport": "platform", "route_ref": "140", "shelter": "no", "tactile_paving": "no", "wheelchair": "limited", "osm_type": "node", "osm_id": 1426100418}}, {"type": "Feature", "geometry": {"type": "Point", "coordinates": [-6.2152403, 53.3316356]}, "properties": {"bench": "yes", "bin": "no", "bus": "yes", "covered": "no", "highway": "bus_stop", "lit": "yes", "name": "Sandymount Green", "network": "Dublin Bus", "network:wikidata": "Q1263090", "network:wikipedia": "en:Dublin Bus", "note": "Dublin Bus route 18 terminus", "operator": "Dublin Bus", "public_transport": "platform", "route_ref": "18", "osm_type": "node", "osm_id": 1426100429}}, {"type": "Feature", "geometry": {"type": "Point", "coordinates": [-6.2684531, 53.3777105]}, "properties": {"bench": "no", "bus": "yes", "highway": "bus_stop", "lit": "yes", "name": "Unused", "passenger_information_display": "no", "public_transport": "platform", "route_ref": "none", "shelter": "no", "surface": "concrete", "osm_type": "node", "osm_id": 1427531923}}, {"type": "Feature", "geometry": {"type": "Point", "coordinates": [-6.2699908, 53.3762679]}, "properties": {"bench": "yes", "bus": "yes", "check_date:shelter": "2025-01-25", "highway": "bus_stop", "lit": "yes", "name": "Unused", "passenger_information_display": "no", "public_transport": "platform", "route_ref": "none", "shelter": "yes", "source": "survey", "surface": "concrete", "osm_type": "node", "osm_id": 1427531926}}, {"type": "Feature", "geometry": {"type": "Point", "coordinates": [-6.2647517, 53.3630381]}, "properties": {"bench": "no", "bin": "no", "bus": "yes", "check_date:shelter": "2026-01-23", "highway": "bus_stop", "lit": "yes", "name": "Whitworth Road", "network": "Dublin Bus", "network:wikidata": "Q1263090", "network:wikipedia": "en:Dublin Bus", "operator": "Dublin Bus", "passenger_information_display": "no", "public_transport": "platform", "ref": "840", "route_ref": "40;40b;40d", "shelter": "no", "tactile_paving": "yes", "wheelchair": "yes", "osm_type": "node", "osm_id": 1432306179}}, {"type": "Feature", "geometry": {"type": "Point", "coordinates": [-6.2177357, 53.3956036]}, "properties": {"bench": "no", "bus": "yes", "highway": "bus_stop", "lit": "yes", "name": "Cromcastle Road", "network": "Dublin Bus", "network:wikidata": "Q1263090", "network:wikipedia": "en:Dublin Bus", "operator": "Dublin Bus", "public_transport": "platform", "shelter": "no", "osm_type": "node", "osm_id": 1432597871}}, {"type": "Feature", "geometry": {"type": "Point", "coordinates": [-6.237672, 53.3699418]}, "properties": {"bench": "no", "bus": "yes", "fixme": "Unused?", "highway": "bus_stop", "name": "Croydon Gardens", "network": "Dublin Bus", "network:wikidata": "Q1263090", "network:wikipedia": "en:Dublin Bus", "operator": "Dublin Bus", "public_transport": "platform", "route_ref": "123", "shelter": "no", "tactile_paving": "yes", "wheelchair": "yes", "osm_type": "node", "osm_id": 1432780729}}, {"type": "Feature", "geometry": {"type": "Point", "coordinates": [-6.1973127, 53.3499901]}, "properties": {"bus": "yes", "fixme": "Typo on name? (\"Post\")", "highway": "bus_stop", "lit": "yes", "name": "Dublin Ferry Port - Stena Line", "network": "Mortons", "operator": "Mortons", "public_transport": "platform", "shelter": "no", "osm_type": "node", "osm_id": 1506883396}}, {"type": "Feature", "geometry": {"type": "Point", "coordinates": [-6.2372844, 53.3619551]}, "properties": {"bench": "yes", "bus": "yes", "highway": "bus_stop", "lit": "yes", "name": "Annesley Bridge Road, Fairview Park", "name:en": "Annesley Bridge Road, Fairview Park", "name:ga": "B\u00f3thar Dhroichead Annesley, P\u00e1irc an Fhionnradhairc", "network": "Transport for Ireland", "network:website": "https://www.transportforireland.ie/", "network:wikidata": "Q17100681", "network:wikipedia": "en:National Transport Authority (Ireland)", "operator": "Dublin Bus", "public_transport": "platform", "ref": "615", "shelter": "yes", "tactile_paving": "yes", "website": "https://www.transportforireland.ie/plan-a-journey/live-departures/?stopId=8220DB000615", "osm_type": "node", "osm_id": 1509385831}}, {"type": "Feature", "geometry": {"type": "Point", "coordinates": [-6.2623539, 53.3974613]}, "properties": {"bench": "no", "bus": "yes", "check_date:shelter": "2021-02-07", "highway": "bus_stop", "name": "Coultry Road", "network": "Dublin Bus", "network:wikidata": "Q1263090", "network:wikipedia": "en:Dublin Bus", "operator": "Dublin Bus", "public_transport": "platform", "shelter": "no", "tactile_paving": "no", "website": "https://www.dublinbus.ie/", "osm_type": "node", "osm_id": 1529891608}}, {"type": "Feature", "geometry": {"type": "Point", "coordinates": [-6.2962446, 53.3246764]}, "properties": {"bench": "no", "bin": "yes", "bus": "yes", "highway": "bus_stop", "lit": "yes", "name": "Sundrive Road, Kildare Road", "network": "Dublin Bus", "network:wikidata": "Q1263090", "network:wikipedia": "en:Dublin Bus", "operator": "Dublin Bus", "public_transport": "platform", "ref": "1395", "shelter": "no", "tactile_paving": "no", "website": "https://www.transportforireland.ie/plan-a-journey/live-departures/?stopId=8220DB001395", "osm_type": "node", "osm_id": 1563546349}}, {"type": "Feature", "geometry": {"type": "Point", "coordinates": [-6.2950054, 53.3260274]}, "properties": {"bench": "no", "bus": "yes", "highway": "bus_stop", "lit": "yes", "name": "Clogher Road, St. Bernadette's Church", "network": "Dublin Bus", "network:wikidata": "Q1263090", "network:wikipedia": "en:Dublin Bus", "operator": "Dublin Bus", "public_transport": "platform", "ref": "1389", "route_ref": "150", "shelter": "no", "website": "https://www.transportforireland.ie/plan-a-journey/live-departures/?stopId=8220DB001389", "osm_type": "node", "osm_id": 1564397771}}, {"type": "Feature", "geometry": {"type": "Point", "coordinates": [-6.235152, 53.3711559]}, "properties": {"bench": "no", "bus": "yes", "highway": "bus_stop", "lit": "yes", "name": "Griffith Avenue", "network": "Dublin Bus", "network:wikidata": "Q1263090", "network:wikipedia": "en:Dublin Bus", "operator": "Dublin Bus", "public_transport": "platform", "route_ref": "123", "shelter": "no", "website": "https://www.dublinbus.ie/", "osm_type": "node", "osm_id": 1610336748}}, {"type": "Feature", "geometry": {"type": "Point", "coordinates": [-6.2501999, 53.3428205]}, "properties": {"alt_name": "Pearse Station", "bench": "no", "bin": "no", "bus": "yes", "highway": "bus_stop", "lit": "yes", "name": "Pearse Station", "name:ga": "St\u00e1is\u00fan na bPiarsach", "network": "Transport for Ireland", "network:wikidata": "Q17100681", "network:wikipedia": "en:National Transport Authority (Ireland)", "operator": "Dublin Bus;Matthews Coach Hire", "passenger_information_display": "yes", "public_transport": "platform", "ref": "495", "route_ref": "4;7;7a;7e;15a;15b;15d;26;27x;44;44d;120;904", "shelter": "no", "tactile_paving": "no", "website": "https://www.transportforireland.ie/plan-a-journey/live-departures/?stopId=8220DB000495", "wheelchair": "limited", "osm_type": "node", "osm_id": 1699503093}}, {"type": "Feature", "geometry": {"type": "Point", "coordinates": [-6.206487, 53.3218693]}, "properties": {"bench": "no", "bin": "no", "bus": "yes", "highway": "bus_stop", "lit": "yes", "name": "Sandymount - (Strand Road near Parade Ave Jct)", "network": "Aircoach", "network:wikidata": "Q4698488", "operator": "Aircoach", "public_transport": "platform", "shelter": "no", "tactile_paving": "no", "website": "https://www.aircoach.ie/", "osm_type": "node", "osm_id": 1708336384}}, {"type": "Feature", "geometry": {"type": "Point", "coordinates": [-6.2269939, 53.3481083]}, "properties": {"bench": "no", "bin": "no", "bus": "yes", "check_date:shelter": "2024-09-29", "highway": "bus_stop", "lit": "yes", "name": "The 'O2' / Point Depot - (East Wall Road)", "network": "Aircoach", "network:wikidata": "Q4698488", "network:wikipedia": "en:Aircoach", "operator": "Aircoach", "public_transport": "platform", "shelter": "no", "tactile_paving": "yes", "osm_type": "node", "osm_id": 1708753119}}, {"type": "Feature", "geometry": {"type": "Point", "coordinates": [-6.2062782, 53.3218786]}, "properties": {"bench": "no", "bin": "no", "bus": "yes", "highway": "bus_stop", "lit": "yes", "name": "Sandymount - (Strand Road near Parade Ave Jct)", "network": "Aircoach", "network:wikidata": "Q4698488", "operator": "Aircoach", "public_transport": "platform", "shelter": "no", "tactile_paving": "no", "website": "https://www.aircoach.ie/", "osm_type": "node", "osm_id": 1708888576}}, {"type": "Feature", "geometry": {"type": "Point", "coordinates": [-6.2447538, 53.3477845]}, "properties": {"bench": "no", "bin": "no", "bus": "yes", "covered": "no", "highway": "bus_stop", "lit": "yes", "name": "Irish Citylink", "network": "Irish Citylink", "network:wikidata": "Q15712847", "network:wikipedia": "en:Irish Citylink", "operator": "Irish Citylink", "public_transport": "platform", "shelter": "no", "tactile_paving": "no", "wheelchair": "yes", "osm_type": "node", "osm_id": 2065134876}}, {"type": "Feature", "geometry": {"type": "Point", "coordinates": [-6.286675, 53.341601]}, "properties": {"bench": "no", "bin": "no", "bus": "yes", "check_date:shelter": "2025-10-20", "highway": "bus_stop", "lit": "yes", "name": "Guinness Storehouse", "network": "City Sightseeing", "operator": "City Sightseeing", "passenger_information_display": "no", "public_transport": "platform", "ref": "13", "shelter": "no", "surface": "concrete", "tactile_paving": "no", "website": "https://citysightseeingdublin.ie/", "osm_type": "node", "osm_id": 2378263786}}, {"type": "Feature", "geometry": {"type": "Point", "coordinates": [-6.2272689, 53.3477291]}, "properties": {"bench": "yes", "bin": "no", "bus": "yes", "covered": "no", "highway": "bus_stop", "lit": "yes", "name": "Convention Centre / 3Arena", "network": "J.J. Kavanagh & Sons", "operator": "J.J. Kavanagh & Sons", "public_transport": "platform", "shelter": "no", "osm_type": "node", "osm_id": 2415245411}}, {"type": "Feature", "geometry": {"type": "Point", "coordinates": [-6.2343402, 53.3451874]}, "properties": {"bench": "no", "bin": "no", "bus": "yes", "fixme": "Check ref.", "highway": "bus_stop", "lit": "yes", "name": "Disused", "network": "Transport for Ireland", "network:website": "https://www.transportforireland.ie/", "network:wikidata": "Q17100681", "operator": "Dublin Bus", "public_transport": "platform", "ref": "7077", "shelter": "no", "surface": "concrete", "wheelchair": "yes", "osm_type": "node", "osm_id": 2521950262}}, {"type": "Feature", "geometry": {"type": "Point", "coordinates": [-6.2540086, 53.3462374]}, "properties": {"bench": "no", "bin": "no", "bus": "yes", "highway": "bus_stop", "lit": "yes", "name": "Luke Street", "network": "Dublin Bus", "network:wikidata": "Q1263090", "network:wikipedia": "en:Dublin Bus", "operator": "Dublin Bus", "public_transport": "platform", "ref": "7561", "shelter": "no", "website": "https://www.transportforireland.ie/plan-a-journey/live-departures/?stopId=8220DB007561", "wheelchair": "limited", "osm_type": "node", "osm_id": 2703139266}}, {"type": "Feature", "geometry": {"type": "Point", "coordinates": [-6.2539263, 53.3466227]}, "properties": {"bench": "no", "bus": "yes", "highway": "bus_stop", "lit": "yes", "name": "Luke Street", "network": "Dublin Bus", "network:wikidata": "Q1263090", "network:wikipedia": "en:Dublin Bus", "operator": "Dublin Bus", "public_transport": "platform", "ref": "7562", "shelter": "no", "website": "https://www.transportforireland.ie/plan-a-journey/live-departures/?stopId=8220DB007562", "osm_type": "node", "osm_id": 2703139267}}, {"type": "Feature", "geometry": {"type": "Point", "coordinates": [-6.2923206, 53.3899343]}, "properties": {"bus": "yes", "highway": "bus_stop", "lit": "yes", "name": "St. Canice's BNS", "network": "Transport for Ireland", "network:wikidata": "Q17100681", "network:wikipedia": "en:National Transport Authority (Ireland)", "operator": "Dublin Bus", "public_transport": "platform", "ref": "138", "route_ref": "9;83;83a;N4", "shelter": "yes", "tactile_paving": "no", "website": "https://www.transportforireland.ie/plan-a-journey/live-departures/?stopId=8220DB000138", "osm_type": "node", "osm_id": 2720094805}}, {"type": "Feature", "geometry": {"type": "Point", "coordinates": [-6.2869916, 53.3901604]}, "properties": {"bench": "yes", "bus": "yes", "highway": "bus_stop", "lit": "yes", "name": "Beneavin Road", "network": "Dublin Bus", "network:wikidata": "Q1263090", "network:wikipedia": "en:Dublin Bus", "operator": "Dublin Bus", "passenger_information_display": "yes", "public_transport": "platform", "route_ref": "9", "shelter": "yes", "tactile_paving": "no", "website": "https://www.dublinbus.ie/", "wheelchair": "limited", "osm_type": "node", "osm_id": 3005745443}}, {"type": "Feature", "geometry": {"type": "Point", "coordinates": [-6.2428787, 53.3462821]}, "properties": {"bench": "no", "bin": "no", "bus": "yes", "departures_board": "no", "disused": "yes", "highway": "bus_stop", "lit": "yes", "name": "Sir John Rogerson's Quay", "network": "Transport for Ireland", "network:wikidata": "Q17100681", "network:wikipedia": "en:National Transport Authority (Ireland)", "operator": "Dublin Bus", "passenger_information_display": "no", "public_transport": "platform", "shelter": "no", "tactile_paving": "no", "tactile_writing:braille:en": "no", "website": "https://www.dublinbus.ie/", "wheelchair": "no", "osm_type": "node", "osm_id": 3013957626}}, {"type": "Feature", "geometry": {"type": "Point", "coordinates": [-6.2580501, 53.3534619]}, "properties": {"bench": "no", "bin": "no", "bus": "yes", "check_date:shelter": "2022-07-10", "highway": "bus_stop", "lit": "yes", "name": "Cumberland Street North \"Pick up\" (temporary)", "network": "Matthews Coaches", "operator": "Matthews Coaches", "public_transport": "platform", "route_ref": "900;901;910", "shelter": "no", "tactile_paving": "no", "osm_type": "node", "osm_id": 3053144527}}, {"type": "Feature", "geometry": {"type": "Point", "coordinates": [-6.2555264, 53.340226]}, "properties": {"bench": "no", "bin": "no", "bus": "yes", "check_date:bench": "2025-10-19", "covered": "no", "highway": "bus_stop", "lit": "yes", "local_ref": "SA", "name": "#4530 Kildare Street, Leinster House", "network": "Dublin Bus", "network:wikidata": "Q1263090", "network:wikipedia": "en:Dublin Bus", "operator": "Dublin Bus", "passenger_information_display": "no", "public_transport": "platform", "ref": "4530", "route_ref": "25;25a;25b", "shelter": "no", "tactile_paving": "no", "website": "https://www.transportforireland.ie/plan-a-journey/live-departures/?stopId=8220DB004530", "wheelchair": "limited", "osm_type": "node", "osm_id": 3209481316}}, {"type": "Feature", "geometry": {"type": "Point", "coordinates": [-6.2502536, 53.3506699]}, "properties": {"bench": "yes", "bin": "yes", "bus": "yes", "covered": "no", "highway": "bus_stop", "lit": "yes", "name": "Amiens Street", "network": "Transport for Ireland", "network:wikidata": "Q17100681", "network:wikipedia": "en:National Transport Authority (Ireland)", "operator": "Bus \u00c9ireann", "public_transport": "platform", "ref": "Sample (!)", "shelter": "no", "tactile_paving": "no", "website": "https://www.buseireann.ie/", "wheelchair": "limited", "osm_type": "node", "osm_id": 3485337316}}, {"type": "Feature", "geometry": {"type": "Point", "coordinates": [-6.2474498, 53.3517074]}, "properties": {"bench": "no", "bus": "yes", "covered": "no", "highway": "bus_stop", "lit": "yes", "name": "Sheriff Street Lower", "network": "Expressway", "network:wikidata": "Q111326049", "operator": "Bus \u00c9ireann", "operator:wikidata": "Q1017233", "operator:wikipedia": "en:Bus \u00c9ireann", "public_transport": "platform", "shelter": "no", "wheelchair": "no", "osm_type": "node", "osm_id": 3677085145}}, {"type": "Feature", "geometry": {"type": "Point", "coordinates": [-6.2469074, 53.3516694]}, "properties": {"bench": "no", "bus": "yes", "covered": "no", "highway": "bus_stop", "lit": "yes", "name": "Sheriff Street Lower", "network": "Expressway", "network:wikidata": "Q111326049", "operator": "Bus \u00c9ireann", "operator:wikidata": "Q1017233", "operator:wikipedia": "en:Bus \u00c9ireann", "public_transport": "platform", "shelter": "no", "wheelchair": "no", "osm_type": "node", "osm_id": 3677085146}}, {"type": "Feature", "geometry": {"type": "Point", "coordinates": [-6.2477753, 53.3516557]}, "properties": {"bench": "no", "bin": "no", "bus": "yes", "covered": "no", "highway": "bus_stop", "lit": "yes", "name": "Sheriff Street Lower", "network": "Transport for Ireland", "network:website": "https://www.transportforireland.ie/", "network:wikidata": "Q17100681", "operator": "Bus \u00c9ireann", "operator:website": "https://www.buseireann.ie/", "operator:wikidata": "Q1017233", "public_transport": "platform", "shelter": "no", "tactile_paving": "no", "wheelchair": "limited", "osm_type": "node", "osm_id": 3677094025}}, {"type": "Feature", "geometry": {"type": "Point", "coordinates": [-6.2076655, 53.3250744]}, "properties": {"bench": "no", "bin": "no", "bus": "yes", "fixme": "Check ref.", "highway": "bus_stop", "lit": "yes", "name": "#382 St. John's Road, Seamount House", "network": "Dublin Bus", "network:wikidata": "Q1263090", "network:wikipedia": "en:Dublin Bus", "operator": "Dublin Bus", "public_transport": "platform", "ref": "382", "shelter": "no", "tactile_paving": "yes", "website": "https://www.dublinbus.ie/", "osm_type": "node", "osm_id": 3760348141}}, {"type": "Feature", "geometry": {"type": "Point", "coordinates": [-6.2092339, 53.324688]}, "properties": {"bench": "no", "bin": "no", "bus": "yes", "fixme": "Check ref.", "highway": "bus_stop", "lit": "yes", "name": "#380 St. John's Road, Simmonscourt View", "network": "Transport for Ireland", "network:wikidata": "Q17100681", "network:wikipedia": "en:National Transport Authority (Ireland)", "operator": "Dublin Bus", "public_transport": "platform", "ref": "380", "shelter": "no", "tactile_paving": "yes", "website": "https://www.dublinbus.ie/", "osm_type": "node", "osm_id": 3760348142}}, {"type": "Feature", "geometry": {"type": "Point", "coordinates": [-6.2077897, 53.3260717]}, "properties": {"bench": "no", "bin": "no", "bus": "yes", "highway": "bus_stop", "lit": "yes", "name": "#4451 Strand Road, St. John's Road", "network": "Transport for Ireland", "network:wikidata": "Q17100681", "network:wikipedia": "en:National Transport Authority (Ireland)", "operator": "Dublin Bus", "public_transport": "platform", "ref": "4451", "shelter": "no", "tactile_paving": "yes", "website": "https://www.transportforireland.ie/plan-a-journey/live-departures/?stopId=8220DB004451", "osm_type": "node", "osm_id": 3760348143}}, {"type": "Feature", "geometry": {"type": "Point", "coordinates": [-6.2072527, 53.3256149]}, "properties": {"bench": "no", "bin": "no", "bus": "yes", "highway": "bus_stop", "lit": "yes", "name": "#378 Strand Road, Sandymount Tower", "network": "Transport for Ireland", "network:wikidata": "Q17100681", "network:wikipedia": "en:National Transport Authority (Ireland)", "operator": "Dublin Bus", "public_transport": "platform", "ref": "378", "shelter": "no", "tactile_paving": "yes", "website": "https://www.transportforireland.ie/plan-a-journey/live-departures/?stopId=8220DB000378", "wheelchair": "yes", "osm_type": "node", "osm_id": 3760348144}}, {"type": "Feature", "geometry": {"type": "Point", "coordinates": [-6.2088164, 53.32871]}, "properties": {"bench": "no", "bin": "no", "bus": "yes", "highway": "bus_stop", "lit": "yes", "name": "#377 Strand Road, Gilford Road", "network": "Dublin Bus", "network:wikidata": "Q1263090", "network:wikipedia": "en:Dublin Bus", "operator": "Dublin Bus", "public_transport": "platform", "ref": "377", "route_ref": "1", "shelter": "no", "tactile_paving": "yes", "website": "https://www.transportforireland.ie/plan-a-journey/live-departures/?stopId=8220DB000377", "wheelchair": "yes", "osm_type": "node", "osm_id": 3760348145}}, {"type": "Feature", "geometry": {"type": "Point", "coordinates": [-6.208949, 53.3285845]}, "properties": {"bench": "no", "bin": "yes", "bus": "yes", "highway": "bus_stop", "lit": "yes", "name": "#383 Strand Road, Gilford Road", "network": "Dublin Bus", "network:wikidata": "Q1263090", "network:wikipedia": "en:Dublin Bus", "operator": "Dublin Bus", "public_transport": "platform", "ref": "383", "route_ref": "1", "shelter": "yes", "tactile_paving": "yes", "website": "https://www.transportforireland.ie/plan-a-journey/live-departures/?stopId=8220DB000383", "wheelchair": "yes", "osm_type": "node", "osm_id": 3760348146}}, {"type": "Feature", "geometry": {"type": "Point", "coordinates": [-6.2104917, 53.3322818]}, "properties": {"bench": "no", "bin": "no", "bus": "yes", "highway": "bus_stop", "lit": "yes", "name": "#2804 Strand Road, Newgrove Avenue", "network": "Transport for Ireland", "network:wikidata": "Q17100681", "operator": "Dublin Bus", "public_transport": "platform", "ref": "2804", "shelter": "no", "tactile_paving": "yes", "website": "https://www.transportforireland.ie/plan-a-journey/live-departures/?stopId=8220DB002804", "wheelchair": "yes", "osm_type": "node", "osm_id": 3760348148}}, {"type": "Feature", "geometry": {"type": "Point", "coordinates": [-6.2092696, 53.3306832]}, "properties": {"bench": "no", "bin": "no", "bus": "yes", "highway": "bus_stop", "lit": "yes", "name": "#376 Strand Road, Lea Road", "network": "Dublin Bus", "network:wikidata": "Q1263090", "network:wikipedia": "en:Dublin Bus", "operator": "Dublin Bus", "public_transport": "platform", "ref": "376", "shelter": "no", "tactile_paving": "yes", "website": "https://www.transportforireland.ie/plan-a-journey/live-departures/?stopId=8220DB000376", "wheelchair": "yes", "osm_type": "node", "osm_id": 3760348149}}, {"type": "Feature", "geometry": {"type": "Point", "coordinates": [-6.2101519, 53.3316095]}, "properties": {"bench": "no", "bin": "no", "bus": "yes", "highway": "bus_stop", "lit": "yes", "name": "#384 Strand Road, Lea Road", "network": "Transport for Ireland", "network:wikidata": "Q17100681", "operator": "Dublin Bus", "public_transport": "platform", "ref": "384", "shelter": "no", "tactile_paving": "yes", "website": "https://www.transportforireland.ie/plan-a-journey/live-departures/?stopId=8220DB000384", "osm_type": "node", "osm_id": 3760348150}}, {"type": "Feature", "geometry": {"type": "Point", "coordinates": [-6.3091566, 53.3357064]}, "properties": {"bench": "no", "bus": "yes", "covered": "no", "highway": "bus_stop", "lit": "yes", "name": "Galtymore Road", "network": "Transport for Ireland", "network:wikidata": "Q17100681", "network:wikipedia": "en:National Transport Authority (Ireland)", "operator": "Dublin Bus", "public_transport": "platform", "shelter": "no", "surface": "concrete", "website": "https://www.dublinbus.ie/", "osm_type": "node", "osm_id": 4210277994}}, {"type": "Feature", "geometry": {"type": "Point", "coordinates": [-6.2562672, 53.3473895]}, "properties": {"bench": "no", "bin": "yes", "bus": "yes", "check_date:shelter": "2025-10-20", "highway": "bus_stop", "lit": "yes", "name": "Burgh Quay", "name:en": "Burgh Quay", "network": "Dublin Coach", "operator": "Dublin Coach", "public_transport": "platform", "ref": "300, 600", "shelter": "no", "tactile_paving": "no", "wheelchair": "limited", "osm_type": "node", "osm_id": 4382023889}}, {"type": "Feature", "geometry": {"type": "Point", "coordinates": [-6.2324144, 53.3526163]}, "properties": {"bench": "no", "bus": "yes", "highway": "bus_stop", "lit": "yes", "name": "Church Road, Church Court", "network": "Transport for Ireland", "network:website": "https://www.transportforireland.ie/", "network:wikidata": "Q17100681", "network:wikipedia": "en:National Transport Authority (Ireland)", "operator": "Dublin Bus", "operator:wikidata": "Q1263090", "operator:wikipedia": "en:Dublin Bus", "passenger_information_display": "no", "public_transport": "platform", "shelter": "no", "tactile_paving": "no", "website": "https://www.dublinbus.ie/", "wheelchair": "limited", "osm_type": "node", "osm_id": 4741567981}}, {"type": "Feature", "geometry": {"type": "Point", "coordinates": [-6.2210271, 53.3510864]}, "properties": {"bench": "no", "bin": "no", "bus": "yes", "highway": "bus_stop", "lit": "yes", "name": "Alexandra Road, East Wall Road", "network": "Dublin Bus", "network:wikidata": "Q1263090", "network:wikipedia": "en:Dublin Bus", "operator": "Dublin Bus", "public_transport": "platform", "ref": "2246", "route_ref": "53", "shelter": "no", "tactile_paving": "no", "website": "https://www.transportforireland.ie/plan-a-journey/live-departures/?stopId=8220DB002246", "osm_type": "node", "osm_id": 4741567990}}, {"type": "Feature", "geometry": {"type": "Point", "coordinates": [-6.2176674, 53.3521691]}, "properties": {"bench": "no", "bus": "yes", "highway": "bus_stop", "lit": "yes", "name": "Tolka Quay Road, Bond Drive", "network": "Transport for Ireland", "network:website": "https://www.transportforireland.ie/", "network:wikidata": "Q17100681", "network:wikipedia": "en:National Transport Authority (Ireland)", "operator": "Dublin Bus", "operator:wikidata": "Q1263090", "operator:wikipedia": "en:Dublin Bus", "public_transport": "platform", "route_ref": "53", "shelter": "no", "osm_type": "node", "osm_id": 4741567991}}, {"type": "Feature", "geometry": {"type": "Point", "coordinates": [-6.2140095, 53.3529383]}, "properties": {"bench": "no", "bus": "yes", "highway": "bus_stop", "lit": "yes", "name": "Bond Drive Extension, Dublin Port", "network": "Transport for Ireland", "network:website": "https://www.transportforireland.ie/", "network:wikidata": "Q17100681", "network:wikipedia": "en:National Transport Authority (Ireland)", "operator": "Dublin Bus", "operator:wikidata": "Q1263090", "operator:wikipedia": "en:Dublin Bus", "public_transport": "platform", "route_ref": "53", "shelter": "no", "osm_type": "node", "osm_id": 4741593824}}, {"type": "Feature", "geometry": {"type": "Point", "coordinates": [-6.2776999, 53.3381358]}, "properties": {"bench": "no", "bin": "no", "bus": "yes", "fixme": "Details", "highway": "bus_stop", "lit": "yes", "network": "Dublin Bus", "network:wikidata": "Q1263090", "network:wikipedia": "en:Dublin Bus", "operator": "Dublin Bus", "public_transport": "platform", "shelter": "no", "surface": "concrete", "osm_type": "node", "osm_id": 4848591804}}, {"type": "Feature", "geometry": {"type": "Point", "coordinates": [-6.2226003, 53.3978104]}, "properties": {"bench": "no", "bin": "no", "bus": "yes", "covered": "no", "fixme": "Check stop details.", "highway": "bus_stop", "lit": "yes", "name": "Oscar Traynor Road", "network": "Dublin Bus", "network:wikidata": "Q1263090", "network:wikipedia": "en:Dublin Bus", "operator": "Dublin Bus", "public_transport": "platform", "ref": "5060", "route_ref": "17a", "shelter": "yes", "tactile_paving": "yes", "website": "https://www.dublinbus.ie/", "wheelchair": "yes", "osm_type": "node", "osm_id": 5121047940}}, {"type": "Feature", "geometry": {"type": "Point", "coordinates": [-6.2638854, 53.3458418]}, "properties": {"alt_name": "Wellington Quay", "alt_name:en": "Wellington Quay", "alt_name:ga": "C\u00e9 Wellington", "bench": "no", "bin": "no", "bus": "yes", "highway": "bus_stop", "lit": "yes", "name": "Ha'penny Bridge", "name:en": "Ha'penny Bridge", "name:ga": "Droichead na Leathphingine", "network": "Transport for Ireland", "network:wikidata": "Q17100681", "network:wikipedia": "en:National Transport Authority (Ireland)", "operator": "Bus \u00c9ireann", "passenger_information_display": "yes", "pole": "yes", "public_transport": "platform", "ref": "135101", "route_ref": "115;120;120B;120F;120X;126;126A;126D;126N;126T;126X;130", "shelter": "no", "surface": "concrete", "tactile_paving": "no", "wheelchair": "limited", "osm_type": "node", "osm_id": 5143815722}}, {"type": "Feature", "geometry": {"type": "Point", "coordinates": [-6.2505263, 53.3502266]}, "properties": {"bench": "yes", "bin": "no", "bus": "yes", "covered": "no", "departures_board": "timetable", "highway": "bus_stop", "lit": "yes", "name": "Connolly Station", "name:en": "Connolly Station", "name:ga": "St\u00e1isi\u00fan U\u00ed Chonghaile", "network": "Transport for Ireland", "network:wikidata": "Q17100681", "network:wikipedia": "en:National Transport Authority (Ireland)", "operator": "Go-Ahead Ireland", "operator:website": "https://www.goaheadireland.ie/", "pole": "yes", "public_transport": "platform", "ref": "135121", "route_ref": "120;120B;120F;120X;126;126A;126D;126N;126T;126X;130", "shelter": "no", "tactile_paving": "no", "tactile_writing:braille:en": "no", "website": "https://www.transportforireland.ie/plan-a-journey/live-departures/?stopId=8220B1351201", "wheelchair": "limited", "osm_type": "node", "osm_id": 5333828668}}, {"type": "Feature", "geometry": {"type": "Point", "coordinates": [-6.2622346, 53.3461537]}, "properties": {"bench": "no", "bin": "yes", "bus": "yes", "covered": "no", "highway": "bus_stop", "lit": "yes", "name": "Crampton Quay", "network": "Irish Citylink", "network:wikidata": "Q15712847", "network:wikipedia": "en:Irish Citylink", "operator": "Irish Citylink", "passenger_information_display": "yes", "public_transport": "platform", "ref": "330", "route_ref": "660;761;763", "shelter": "no", "source": "survey", "tactile_paving": "no", "website": "https://www.citylink.ie", "wheelchair": "yes", "osm_type": "node", "osm_id": 5376849355}}, {"type": "Feature", "geometry": {"type": "Point", "coordinates": [-6.2568259, 53.3455538]}, "properties": {"bench": "no", "bin": "yes", "bus": "yes", "highway": "bus_stop", "lit": "yes", "name": "Pearse Street", "network": "Transport for Ireland", "network:wikidata": "Q17100681", "network:wikipedia": "en:National Transport Authority (Ireland)", "operator": "Dublin Bus", "passenger_information_display": "no", "pole": "yes", "public_transport": "platform", "ref": "342", "route_ref": "49;54a", "shelter": "no", "surface": "concrete", "tactile_paving": "no", "tactile_writing:braille:en": "no", "website": "https://www.transportforireland.ie/plan-a-journey/live-departures/?stopId=8220DB000342", "wheelchair": "limited", "osm_type": "node", "osm_id": 5504038796}}, {"type": "Feature", "geometry": {"type": "Point", "coordinates": [-6.2891525, 53.3860467]}, "properties": {"bench": "no", "bus": "yes", "highway": "bus_stop", "lit": "yes", "name": "Glasanaon Road", "network": "Dublin Bus", "network:wikidata": "Q1263090", "network:wikipedia": "en:Dublin Bus", "operator": "Dublin Bus", "public_transport": "platform", "shelter": "no", "tactile_paving": "yes", "website": "https://www.dublinbus.ie/", "osm_type": "node", "osm_id": 5558590501}}, {"type": "Feature", "geometry": {"type": "Point", "coordinates": [-6.331753, 53.3302012]}, "properties": {"bench": "no", "bin": "no", "bus": "yes", "highway": "bus_stop", "lit": "yes", "name": "Naas Road, Luas Bluebell", "network": "Transport for Ireland", "network:wikidata": "Q17100681", "network:wikipedia": "en:National Transport Authority (Ireland)", "operator": "Dublin Bus", "public_transport": "platform", "ref": "1953", "route_ref": "69", "shelter": "no", "surface": "concrete", "tactile_paving": "no", "website": "https://www.transportforireland.ie/plan-a-journey/live-departures/?stopId=8220DB001953", "wheelchair": "limited", "osm_type": "node", "osm_id": 5559756219}}, {"type": "Feature", "geometry": {"type": "Point", "coordinates": [-6.2862682, 53.3895826]}, "properties": {"bench": "no", "bus": "yes", "highway": "bus_stop", "lit": "yes", "name": "Beneavin Road", "network": "Dublin Bus", "network:wikidata": "Q1263090", "network:wikipedia": "en:Dublin Bus", "operator": "Dublin Bus", "public_transport": "platform", "route_ref": "9", "shelter": "no", "tactile_paving": "no", "tactile_writing:braille:en": "yes", "website": "https://www.dublinbus.ie/", "wheelchair": "limited", "osm_type": "node", "osm_id": 5570359672}}, {"type": "Feature", "geometry": {"type": "Point", "coordinates": [-6.2793137, 53.3827511]}, "properties": {"bench": "no", "bus": "yes", "highway": "bus_stop", "lit": "yes", "name": "Griffith Parade", "network": "Dublin Bus", "network:wikidata": "Q1263090", "network:wikipedia": "en:Dublin Bus", "note": "This stop likely disused.", "operator": "Dublin Bus", "public_transport": "platform", "shelter": "no", "tactile_paving": "no", "website": "https://www.dublinbus.ie/", "wheelchair": "limited", "osm_type": "node", "osm_id": 5571079188}}, {"type": "Feature", "geometry": {"type": "Point", "coordinates": [-6.1910636, 53.3794787]}, "properties": {"bench": "no", "bus": "yes", "fixme": "Possibly disused", "highway": "bus_stop", "lit": "yes", "name": "Harmonstown Avenue", "network": "Dublin Bus", "network:wikidata": "Q1263090", "network:wikipedia": "en:Dublin Bus", "operator": "Dublin Bus", "public_transport": "platform", "shelter": "no", "tactile_paving": "yes", "website": "https://www.dublinbus.ie/", "wheelchair": "yes", "osm_type": "node", "osm_id": 5581613450}}, {"type": "Feature", "geometry": {"type": "Point", "coordinates": [-6.1915544, 53.3792307]}, "properties": {"bench": "no", "bus": "yes", "fixme": "Possibly disused", "highway": "bus_stop", "lit": "yes", "name": "Harmonstown Avenue", "network": "Dublin Bus", "network:wikidata": "Q1263090", "network:wikipedia": "en:Dublin Bus", "operator": "Dublin Bus", "public_transport": "platform", "shelter": "no", "tactile_paving": "yes", "website": "https://www.dublinbus.ie/", "wheelchair": "yes", "osm_type": "node", "osm_id": 5581613451}}, {"type": "Feature", "geometry": {"type": "Point", "coordinates": [-6.2642573, 53.3541737]}, "properties": {"bench": "no", "bin": "yes", "bus": "yes", "departures_board": "timetable", "highway": "bus_stop", "lit": "yes", "name": "Parnell Square North", "name:en": "Parnell Square North", "name:ga": "Cearn\u00f3g Parnell Thuaidh", "network": "Cityscape Sightseeing", "operator": "Cityscape Sightseeing", "passenger_information_display": "no", "pole": "yes", "public_transport": "platform", "ref": "8", "shelter": "no", "surface": "concrete", "tactile_paving": "no", "website": "https://www.cityscapetours.ie/", "wheelchair": "limited", "osm_type": "node", "osm_id": 5584369311}}, {"type": "Feature", "geometry": {"type": "Point", "coordinates": [-6.2642738, 53.3541683]}, "properties": {"bench": "no", "bin": "yes", "bus": "yes", "departures_board": "timetable", "highway": "bus_stop", "lit": "yes", "name": "Parnell Square North", "name:en": "Parnell Square North", "name:ga": "Cearn\u00f3g Parnell Thuaidh", "network": "John McGinley", "operator": "John McGinley", "pole": "yes", "public_transport": "platform", "shelter": "no", "surface": "concrete", "tactile_paving": "no", "wheelchair": "limited", "osm_type": "node", "osm_id": 5584369312}}, {"type": "Feature", "geometry": {"type": "Point", "coordinates": [-6.2642842, 53.3541648]}, "properties": {"bench": "no", "bin": "yes", "bus": "yes", "departures_board": "timetable", "highway": "bus_stop", "lit": "yes", "name": "Parnell Square North", "network": "Dublin Bus", "network:wikidata": "Q1263090", "network:wikipedia": "en:Dublin Bus", "operator": "Dublin Bus", "pole": "yes", "public_transport": "platform", "ref": "4726", "route_ref": "46e;747", "shelter": "no", "surface": "concrete", "tactile_paving": "no", "website": "https://www.transportforireland.ie/plan-a-journey/live-departures/?stopId=8220DB004726", "wheelchair": "limited", "osm_type": "node", "osm_id": 5584369313}}, {"type": "Feature", "geometry": {"type": "Point", "coordinates": [-6.2642906, 53.354163]}, "properties": {"bench": "no", "bin": "yes", "bus": "yes", "departures_board": "timetable", "fixme": "Check ref.", "highway": "bus_stop", "lit": "yes", "name": "Parnell Square North", "network": "Dublin Bus", "network:wikidata": "Q1263090", "network:wikipedia": "en:Dublin Bus", "operator": "Dublin Bus", "pole": "yes", "public_transport": "platform", "ref": "2", "shelter": "no", "surface": "concrete", "tactile_paving": "no", "website": "https://www.dublinsightseeing.ie/", "wheelchair": "limited", "osm_type": "node", "osm_id": 5584369314}}, {"type": "Feature", "geometry": {"type": "Point", "coordinates": [-6.2515382, 53.3511447]}, "properties": {"bench": "no", "bin": "no", "bus": "yes", "covered": "yes", "highway": "bus_stop", "layer": "-1", "lit": "yes", "name": "Talbot Street", "network": "Transport for Ireland", "network:website": "https://www.transportforireland.ie/", "network:wikidata": "Q17100681", "network:wikipedia": "en:National Transport Authority (Ireland)", "operator": "Bus \u00c9ireann", "public_transport": "platform", "route_ref": "101", "shelter": "no", "wheelchair": "no", "osm_type": "node", "osm_id": 5585492491}}, {"type": "Feature", "geometry": {"type": "Point", "coordinates": [-6.2575977, 53.3390754]}, "properties": {"bench": "no", "bin": "no", "bus": "yes", "highway": "bus_stop", "lit": "yes", "name": "Dublin Terminus", "network": "Saint Kevins Bus Service", "operator": "Saint Kevins Bus Service", "public_transport": "platform", "ref": "30", "route_ref": "181", "shelter": "no", "tactile_paving": "no", "website": "https://www.glendaloughbus.com/", "wheelchair": "yes", "osm_type": "node", "osm_id": 5593550325}}, {"type": "Feature", "geometry": {"type": "Point", "coordinates": [-6.2516791, 53.3511379]}, "properties": {"bench": "no", "bin": "yes", "bus": "yes", "covered": "yes", "fixme": "This stop is out of service, but still present.", "highway": "bus_stop", "layer": "-1", "lit": "yes", "name": "Talbot Street", "name:en": "Talbot Street", "name:ga": "Sr\u00e1id Talb\u00f3id", "network": "Transport for Ireland", "network:website": "https://www.transportforireland.ie/", "network:wikidata": "Q17100681", "network:wikipedia": "en:National Transport Authority (Ireland)", "operator": "Dublin Bus", "public_transport": "platform", "ref": "620", "route_ref": "no", "shelter": "no", "tactile_paving": "no", "website": "https://www.transportforireland.ie/plan-a-journey/live-departures/?stopId=8220DB000620", "wheelchair": "limited", "osm_type": "node", "osm_id": 5596905071}}, {"type": "Feature", "geometry": {"type": "Point", "coordinates": [-6.2550868, 53.3488423]}, "properties": {"bench": "yes", "bin": "yes", "bus": "yes", "highway": "bus_stop", "lit": "yes", "name": "Beresford Place", "name:en": "Beresford Place", "name:ga": "Pl\u00e1s Bheresford", "network": "Transport for Ireland", "network:website": "https://www.transportforireland.ie/", "network:wikidata": "Q17100681", "operator": "Bus \u00c9ireann", "public_transport": "platform", "ref": "135031", "route_ref": "103;103X;111X;NX", "shelter": "yes", "shelter_ref": "01-523", "surface": "concrete", "tactile_paving": "no", "osm_type": "node", "osm_id": 5598632549}}, {"type": "Feature", "geometry": {"type": "Point", "coordinates": [-6.2342636, 53.3507489]}, "properties": {"bench": "no", "bus": "yes", "fixme": "Check details", "highway": "bus_stop", "lit": "yes", "name": "East Road", "network": "Dublin Bus", "network:wikidata": "Q1263090", "network:wikipedia": "en:Dublin Bus", "operator": "Dublin Bus", "passenger_information_display": "no", "public_transport": "platform", "route_ref": "151", "shelter": "no", "tactile_paving": "no", "website": "https://www.dublinbus.ie/", "wheelchair": "limited", "osm_type": "node", "osm_id": 5602544821}}, {"type": "Feature", "geometry": {"type": "Point", "coordinates": [-6.2599509, 53.3495035]}, "properties": {"bench": "no", "bin": "no", "bus": "yes", "covered": "no", "highway": "bus_stop", "lit": "yes", "local_ref": "OQ", "name": "Temporary Stop - O'Connell Street, North Earl Street", "network": "Dublin Bus", "network:wikidata": "Q1263090", "network:wikipedia": "en:Dublin Bus", "note": "Temporary stop April-May 2018. In use for stop 6059: https://www.openstreetmap.org/node/1589739792;Stop temporarily out of use April-May 2018.", "object:street": "O'Connell Street Lower", "operator": "Dublin Bus", "passenger_information_display": "no", "public_transport": "platform", "ref": "6059", "route_ref": "7b;7d;38;38a;36b;46a;140", "shelter": "no", "tactile_paving": "no", "website": "https://www.transportforireland.ie/plan-a-journey/live-departures/?stopId=8220DB006059", "wheelchair": "limited", "osm_type": "node", "osm_id": 5627360219}}, {"type": "Feature", "geometry": {"type": "Point", "coordinates": [-6.2580566, 53.3525472]}, "properties": {"bench": "no", "bin": "no", "bus": "yes", "covered": "no", "fixme": "No ref.", "highway": "bus_stop", "lit": "yes", "name": "Cathal Brugha Street", "network": "Dublin Bus", "network:wikidata": "Q1263090", "network:wikipedia": "en:Dublin Bus", "operator": "Dublin Bus", "passenger_information_display": "no", "public_transport": "platform", "shelter": "no", "tactile_paving": "no", "osm_type": "node", "osm_id": 5628225711}}, {"type": "Feature", "geometry": {"type": "Point", "coordinates": [-6.2578313, 53.3525968]}, "properties": {"bench": "no", "bin": "yes", "bus": "yes", "covered": "no", "fixme": "No ref.", "highway": "bus_stop", "lit": "yes", "name": "Cathal Brugha Street", "network": "Dublin Bus", "network:wikidata": "Q1263090", "network:wikipedia": "en:Dublin Bus", "operator": "Dublin Bus", "passenger_information_display": "no", "public_transport": "platform", "shelter": "no", "tactile_paving": "no", "osm_type": "node", "osm_id": 5628225712}}, {"type": "Feature", "geometry": {"type": "Point", "coordinates": [-6.2609408, 53.3509264]}, "properties": {"alt_name": "O'Connell Street Lower", "bench": "no", "bin": "yes", "bus": "yes", "covered": "no", "highway": "bus_stop", "lit": "yes", "name": "Dublin Bus Head Office", "name:en": "Dublin Bus Head Office", "not:network:wikidata": "Q1263090", "note": "Dublin Bus ref 6060.\n\nDublin Bus Hop-on Hop-off ref 1.", "object:street": "O'Connell Street Upper", "operator": "Dublin Bus", "passenger_information_display": "yes", "public_transport": "platform", "ref": "6060", "shelter": "no", "tactile_paving": "no", "website": "https://dodublin.ie/", "wheelchair": "limited", "osm_type": "node", "osm_id": 5628766215}}, {"type": "Feature", "geometry": {"type": "Point", "coordinates": [-6.2606384, 53.3472568]}, "properties": {"bench": "no", "bin": "yes", "bus": "yes", "highway": "bus_stop", "lit": "yes", "name": "Bachelor's Walk", "network": "City Sightseeing", "operator": "City Sightseeing", "passenger_information_display": "no", "public_transport": "platform", "ref": "22", "shelter": "no", "surface": "concrete", "tactile_paving": "no", "website": "https://citysightseeingdublin.ie/", "wheelchair": "limited", "osm_type": "node", "osm_id": 5631333859}}, {"type": "Feature", "geometry": {"type": "Point", "coordinates": [-6.2606169, 53.34726]}, "properties": {"bench": "no", "bin": "yes", "bus": "yes", "highway": "bus_stop", "lit": "yes", "name": "Bachelor's Walk", "not:network:wikidata": "Q1263090", "operator": "Dublin Bus", "public_transport": "platform", "ref": "33", "shelter": "no", "tactile_paving": "no", "website": "https://dodublin.ie/", "wheelchair": "limited", "osm_type": "node", "osm_id": 5631333860}}, {"type": "Feature", "geometry": {"type": "Point", "coordinates": [-6.2413242, 53.3185461]}, "properties": {"bench": "no", "bus": "yes", "highway": "bus_stop", "lit": "yes", "name": "Eglinton Road", "network": "Dublin Bus", "network:wikidata": "Q1263090", "network:wikipedia": "en:Dublin Bus", "note": "Set down only.", "operator": "Dublin Bus", "public_transport": "platform", "shelter": "no", "tactile_paving": "no", "wheelchair": "limited", "osm_type": "node", "osm_id": 5659515236}}, {"type": "Feature", "geometry": {"type": "Point", "coordinates": [-6.2566014, 53.3473378]}, "properties": {"bench": "no", "bin": "yes", "bus": "yes", "check_date:shelter": "2025-10-20", "highway": "bus_stop", "lit": "yes", "name": "Dublin Coach", "network": "Dublin Coach", "operator": "Dublin Coach", "passenger_information_display": "yes", "public_transport": "platform", "ref": "600", "shelter": "no", "surface": "concrete", "tactile_paving": "no", "website": "https://www.dublincoach.ie/", "wheelchair": "limited", "osm_type": "node", "osm_id": 5808399253}}, {"type": "Feature", "geometry": {"type": "Point", "coordinates": [-6.2170887, 53.3747809]}, "properties": {"bench": "no", "bin": "no", "bus": "yes", "highway": "bus_stop", "lit": "yes", "name": "Collins Avenue East", "network": "Transport for Ireland", "network:website": "https://www.transportforireland.ie/", "network:wikidata": "Q17100681", "network:wikipedia": "en:National Transport Authority (Ireland)", "operator": "Go-Ahead Ireland", "passenger_information_display": "no", "public_transport": "platform", "ref": "663", "route_ref": "104", "shelter": "no", "surface": "concrete", "tactile_paving": "yes", "website": "https://www.dublinbus.ie/", "wheelchair": "yes", "osm_type": "node", "osm_id": 6033191308}}, {"type": "Feature", "geometry": {"type": "Point", "coordinates": [-6.2587619, 53.3486065]}, "properties": {"bench": "no", "bin": "no", "bus": "yes", "check_date:bench": "2024-09-28", "covered": "no", "highway": "bus_stop", "lit": "yes", "name": "Abbey Street / Abbey Theatre", "network": "City Sightseeing", "operator": "City Sightseeing", "passenger_information_display": "no", "public_transport": "platform", "ref:signed": "no", "shelter": "no", "surface": "concrete", "tactile_paving": "no", "website": "https://citysightseeingdublin.ie/", "osm_type": "node", "osm_id": 6141244141}}, {"type": "Feature", "geometry": {"type": "Point", "coordinates": [-6.2588558, 53.3485929]}, "properties": {"bench": "no", "bin": "no", "bus": "yes", "covered": "no", "highway": "bus_stop", "lit": "yes", "name": "Abbey Street", "network": "Big Bus Tours Ltd", "operator": "Big Bus Tours Ltd", "passenger_information_display": "no", "public_transport": "platform", "ref": "27", "shelter": "no", "surface": "concrete", "tactile_paving": "no", "website": "https://www.bigbustours.com/en/dublin/dublin-bus-tours/", "wheelchair": "yes", "osm_type": "node", "osm_id": 6141244142}}, {"type": "Feature", "geometry": {"type": "Point", "coordinates": [-6.2587226, 53.348612]}, "properties": {"bench": "no", "bin": "yes", "bus": "yes", "covered": "no", "highway": "bus_stop", "lit": "yes", "name": "Abbey Street", "network": "Collins Day Tours", "operator": "Collins Coaches", "passenger_information_display": "no", "public_transport": "platform", "ref": "13020", "ref:signed": "no", "shelter": "no", "surface": "concrete", "tactile_paving": "no", "website": "https://collinscoaches.ie/", "osm_type": "node", "osm_id": 6157780507}}, {"type": "Feature", "geometry": {"type": "Point", "coordinates": [-6.2325371, 53.3189203]}, "properties": {"bench": "no", "bin": "no", "bus": "yes", "highway": "bus_stop", "lit": "yes", "name": "Donnybrook Garage", "network": "Dublin Bus", "network:wikidata": "Q1263090", "network:wikipedia": "en:Dublin Bus", "operator": "Dublin Bus", "passenger_information_display": "no", "public_transport": "platform", "shelter": "no", "surface": "concrete", "tactile_paving": "no", "website": "https://www.dublinbus.ie/", "wheelchair": "limited", "osm_type": "node", "osm_id": 6175474870}}, {"type": "Feature", "geometry": {"type": "Point", "coordinates": [-6.2959055, 53.3499656]}, "properties": {"bench": "no", "bin": "yes", "bus": "yes", "highway": "bus_stop", "lit": "yes", "name": "Infirmary Road", "network": "Dublin Bus", "network:wikidata": "Q1263090", "network:wikipedia": "en:Dublin Bus", "operator": "Dublin Bus", "passenger_information_display": "no", "pole": "yes", "public_transport": "platform", "ref": "7513", "route_ref": "46a", "shelter": "no", "surface": "concrete", "tactile_paving": "no", "website": "https://www.transportforireland.ie/plan-a-journey/live-departures/?stopId=8220DB007513", "wheelchair": "limited", "osm_type": "node", "osm_id": 6203378078}}, {"type": "Feature", "geometry": {"type": "Point", "coordinates": [-6.2668691, 53.3971531]}, "properties": {"bench": "yes", "bus": "yes", "departures_board": "no", "fixme": "Check ref.", "highway": "bus_stop", "lit": "yes", "network": "Transport for Ireland", "network:wikidata": "Q17100681", "network:wikipedia": "en:National Transport Authority (Ireland)", "operator": "Dublin Bus", "passenger_information_display": "no", "pole": "no", "public_transport": "platform", "ref": "101", "shelter": "yes", "shelter_ref": "11-___", "surface": "concrete", "tactile_writing:braille:en": "no", "osm_type": "node", "osm_id": 6255764644}}, {"type": "Feature", "geometry": {"type": "Point", "coordinates": [-6.2670957, 53.3966637]}, "properties": {"bench": "no", "bus": "yes", "departures_board": "no", "fixme": "Check ref.", "highway": "bus_stop", "lit": "yes", "network": "Transport for Ireland", "network:wikidata": "Q17100681", "network:wikipedia": "en:National Transport Authority (Ireland)", "operator": "Dublin Bus", "passenger_information_display": "no", "pole": "yes", "public_transport": "platform", "ref": "7190", "shelter": "no", "surface": "concrete", "tactile_paving": "no", "tactile_writing:braille:en": "no", "website": "https://www.dublinbus.ie/", "wheelchair": "limited", "osm_type": "node", "osm_id": 6255764645}}, {"type": "Feature", "geometry": {"type": "Point", "coordinates": [-6.3338676, 53.3224958]}, "properties": {"bench": "yes", "bus": "yes", "departures_board": "yes", "highway": "bus_stop", "lit": "yes", "name": "Kilnamanagh Road", "network": "Transport for Ireland", "network:wikidata": "Q17100681", "network:wikipedia": "en:National Transport Authority (Ireland)", "operator": "Dublin Bus", "public_transport": "platform", "route_ref": "123", "shelter": "yes", "tactile_paving": "yes", "tactile_writing:braille:en": "no", "website": "https://www.dublinbus.ie/", "wheelchair": "yes", "osm_type": "node", "osm_id": 6804878419}}, {"type": "Feature", "geometry": {"type": "Point", "coordinates": [-6.250783, 53.3394068]}, "properties": {"bench": "no", "bin": "no", "bus": "yes", "departures_board": "no", "description": "Set Down Only", "highway": "bus_stop", "lit": "yes", "name": "Merrion Square", "network": "Dublin Bus", "network:wikidata": "Q1263090", "operator": "Dublin Bus", "platforms": "1", "public_transport": "platform", "ref": "7387", "shelter": "no", "stop": "stop_exit_only", "tactile_paving": "no", "website": "https://www.transportforireland.ie/plan-a-journey/live-departures/?stopId=8220DB007387", "osm_type": "node", "osm_id": 6838983986}}, {"type": "Feature", "geometry": {"type": "Point", "coordinates": [-6.2511715, 53.3494994]}, "properties": {"bench": "no", "bin": "no", "bus": "yes", "covered": "no", "departures_board": "no", "disused": "yes", "highway": "bus_stop", "lit": "yes", "name": "Bus\u00e1ras, stop 135001", "network": "Transport for Ireland", "network:wikidata": "Q17100681", "network:wikipedia": "en:National Transport Authority (Ireland)", "operator": "Dublin Bus", "public_transport": "platform", "ref": "135001", "shelter": "no", "tactile_paving": "no", "tactile_writing:braille:en": "no", "wheelchair": "limited", "osm_type": "node", "osm_id": 7058480434}}, {"type": "Feature", "geometry": {"type": "Point", "coordinates": [-6.2090186, 53.362473]}, "properties": {"bench": "no", "bus": "yes", "covered": "no", "fixme": "Check details", "highway": "bus_stop", "lit": "yes", "name": "Victoria Road", "network": "Transport for Ireland", "network:wikidata": "Q17100681", "network:wikipedia": "en:National Transport Authority (Ireland)", "operator": "Dublin Bus", "public_transport": "platform", "route_ref": "44a", "shelter": "no", "tactile_paving": "no", "tactile_writing:braille:en": "no", "website": "https://www.dublinbus.ie/", "wheelchair": "limited", "osm_type": "node", "osm_id": 7058550271}}, {"type": "Feature", "geometry": {"type": "Point", "coordinates": [-6.2560025, 53.3471021]}, "properties": {"bench": "no", "bin": "no", "bus": "yes", "departures_board": "no", "disused": "yes", "highway": "bus_stop", "lit": "yes", "name": "Corn Exchange Place", "network": "Dublin Bus", "network:wikidata": "Q1263090", "network:wikipedia": "en:Dublin Bus", "operator": "Dublin Bus", "public_transport": "platform", "shelter": "no", "tactile_paving": "no", "website": "https://www.dublinbus.ie/", "wheelchair": "limited", "osm_type": "node", "osm_id": 7058561160}}, {"type": "Feature", "geometry": {"type": "Point", "coordinates": [-6.2179726, 53.3279351]}, "properties": {"bench": "no", "bus": "yes", "covered": "no", "departures_board": "no", "disused": "yes", "highway": "bus_stop", "lit": "yes", "name": "Gilford Park", "network": "Transport for Ireland", "network:wikidata": "Q17100681", "network:wikipedia": "en:National Transport Authority (Ireland)", "operator": "Dublin Bus", "public_transport": "platform", "shelter": "no", "tactile_paving": "no", "tactile_writing:braille:en": "no", "wheelchair": "limited", "osm_type": "node", "osm_id": 7058579763}}, {"type": "Feature", "geometry": {"type": "Point", "coordinates": [-6.1847134, 53.3843602]}, "properties": {"bench": "no", "bus": "yes", "departures_board": "no", "highway": "bus_stop", "lit": "yes", "name": "Springdale Road", "network": "Transport for Ireland", "network:wikidata": "Q17100681", "network:wikipedia": "en:National Transport Authority (Ireland)", "operator": "Dublin Bus", "public_transport": "platform", "shelter": "no", "tactile_paving": "no", "tactile_writing:braille:en": "no", "website": "https://www.dublinbus.ie/", "wheelchair": "limited", "osm_type": "node", "osm_id": 7058579794}}, {"type": "Feature", "geometry": {"type": "Point", "coordinates": [-6.3614306, 53.3397295]}, "properties": {"bus": "yes", "highway": "bus_stop", "name": "#2658 Oranmore Road", "network": "Transport for Ireland", "network:website": "https://www.transportforireland.ie/", "network:wikidata": "Q17100681", "operator": "Dublin Bus", "public_transport": "platform", "ref": "2658", "website": "https://www.transportforireland.ie/plan-a-journey/live-departures/?stopId=8220DB002658", "osm_type": "node", "osm_id": 7175546280}}, {"type": "Feature", "geometry": {"type": "Point", "coordinates": [-6.3677178, 53.3397686]}, "properties": {"bus": "yes", "highway": "bus_stop", "name": "Ballyfermot, Spiddal Park", "network": "Transport for Ireland", "network:website": "https://www.transportforireland.ie/", "network:wikidata": "Q17100681", "operator": "Dublin Bus", "public_transport": "platform", "osm_type": "node", "osm_id": 7175548186}}, {"type": "Feature", "geometry": {"type": "Point", "coordinates": [-6.3077751, 53.400088]}, "properties": {"bus": "yes", "highway": "bus_stop", "lit": "yes", "name": "Finglas (North Road)", "name:en": "Finglas (North Road)", "network": "Transport for Ireland", "network:website": "https://www.transportforireland.ie/", "network:wikidata": "Q17100681", "operator": "Bus \u00c9ireann", "operator:website": "https://www.buseireann.ie/", "operator:wikidata": "Q1017233", "public_transport": "platform", "ref": "101131", "route_ref": "103;111X;NX", "osm_type": "node", "osm_id": 8132770912}}, {"type": "Feature", "geometry": {"type": "Point", "coordinates": [-6.2488577, 53.3335207]}, "properties": {"bus": "yes", "highway": "bus_stop", "name": "Wilton Terrace", "name:en": "Wilton Terrace", "name:ga": "Ard\u00e1n Wilton", "network": "Transport for Ireland", "network:wikidata": "Q17100681", "network:wikipedia": "en:National Transport Authority (Ireland)", "operator": "Bus \u00c9ireann", "public_transport": "platform", "ref": "135311", "route_ref": "100X;111X;NX", "osm_type": "node", "osm_id": 8140323638}}, {"type": "Feature", "geometry": {"type": "Point", "coordinates": [-6.2515511, 53.3497151]}, "properties": {"bus": "yes", "highway": "bus_stop", "local_ref": "2", "name": "Bus\u00e1ras", "name:en": "Bus\u00e1ras", "name:ga": "Bus\u00e1ras", "network": "Expressway", "network:wikidata": "Q111326049", "operator": "Bus \u00c9ireann", "operator:wikidata": "Q1017233", "operator:wikipedia": "en:Bus \u00c9ireann", "passenger_information_display": "yes", "public_transport": "platform", "ref": "135001", "shelter": "yes", "tactile_paving": "no", "osm_type": "node", "osm_id": 8144188585}}, {"type": "Feature", "geometry": {"type": "Point", "coordinates": [-6.2516155, 53.3496776]}, "properties": {"bus": "yes", "highway": "bus_stop", "local_ref": "3", "name": "Bus\u00e1ras", "name:en": "Bus\u00e1ras", "name:ga": "Bus\u00e1ras", "network": "Expressway", "network:wikidata": "Q111326049", "operator": "Bus \u00c9ireann", "operator:wikidata": "Q1017233", "operator:wikipedia": "en:Bus \u00c9ireann", "passenger_information_display": "yes", "public_transport": "platform", "ref": "135001", "shelter": "yes", "tactile_paving": "no", "osm_type": "node", "osm_id": 8144188586}}, {"type": "Feature", "geometry": {"type": "Point", "coordinates": [-6.2517343, 53.3496083]}, "properties": {"bus": "yes", "highway": "bus_stop", "local_ref": "5", "name": "Bus\u00e1ras", "name:en": "Bus\u00e1ras", "name:ga": "Bus\u00e1ras", "network": "Expressway", "network:wikidata": "Q111326049", "operator": "Bus \u00c9ireann", "operator:wikidata": "Q1017233", "operator:wikipedia": "en:Bus \u00c9ireann", "passenger_information_display": "yes", "public_transport": "platform", "ref": "135001", "shelter": "yes", "tactile_paving": "no", "osm_type": "node", "osm_id": 8144188587}}, {"type": "Feature", "geometry": {"type": "Point", "coordinates": [-6.251678, 53.3496411]}, "properties": {"bus": "yes", "highway": "bus_stop", "local_ref": "4", "name": "Bus\u00e1ras", "name:en": "Bus\u00e1ras", "name:ga": "Bus\u00e1ras", "network": "Expressway", "network:wikidata": "Q111326049", "operator": "Bus \u00c9ireann", "operator:wikidata": "Q1017233", "operator:wikipedia": "en:Bus \u00c9ireann", "passenger_information_display": "yes", "public_transport": "platform", "ref": "135001", "shelter": "yes", "tactile_paving": "no", "osm_type": "node", "osm_id": 8144188588}}, {"type": "Feature", "geometry": {"type": "Point", "coordinates": [-6.2515037, 53.3497428]}, "properties": {"bus": "yes", "highway": "bus_stop", "local_ref": "1", "name": "Bus\u00e1ras", "name:en": "Bus\u00e1ras", "name:ga": "Bus\u00e1ras", "network": "Expressway", "network:wikidata": "Q111326049", "operator": "Bus \u00c9ireann", "operator:wikidata": "Q1017233", "operator:wikipedia": "en:Bus \u00c9ireann", "passenger_information_display": "yes", "public_transport": "platform", "ref": "135001", "shelter": "yes", "tactile_paving": "no", "osm_type": "node", "osm_id": 8144188589}}, {"type": "Feature", "geometry": {"type": "Point", "coordinates": [-6.2518638, 53.3500274]}, "properties": {"bench": "no", "bin": "no", "bus": "yes", "highway": "bus_stop", "local_ref": "16", "name": "Bus\u00e1ras", "name:en": "Bus\u00e1ras", "name:ga": "Bus\u00e1ras", "network": "Expressway", "network:wikidata": "Q111326049", "operator": "Bus \u00c9ireann", "operator:wikidata": "Q1017233", "operator:wikipedia": "en:Bus \u00c9ireann", "passenger_information_display": "yes", "public_transport": "platform", "shelter": "yes", "tactile_paving": "no", "osm_type": "node", "osm_id": 8144188590}}, {"type": "Feature", "geometry": {"type": "Point", "coordinates": [-6.2524009, 53.3498533]}, "properties": {"bus": "yes", "highway": "bus_stop", "local_ref": "15", "name": "Bus\u00e1ras", "name:en": "Bus\u00e1ras", "name:ga": "Bus\u00e1ras", "network": "Expressway", "network:wikidata": "Q111326049", "operator": "Bus \u00c9ireann", "operator:wikidata": "Q1017233", "operator:wikipedia": "en:Bus \u00c9ireann", "passenger_information_display": "yes", "public_transport": "platform", "shelter": "yes", "tactile_paving": "no", "osm_type": "node", "osm_id": 8144188591}}, {"type": "Feature", "geometry": {"type": "Point", "coordinates": [-6.2269876, 53.3481208]}, "properties": {"bench": "no", "bin": "no", "bus": "yes", "highway": "bus_stop", "name": "East Wall Road", "name:en": "East Wall Road", "name:ga": "B\u00f3thar an Phoirt Thoir", "network": "Transport for Ireland", "network:website": "https://www.transportforireland.ie/", "network:wikidata": "Q17100681", "operator": "Bus \u00c9ireann", "public_transport": "platform", "route_ref": "22;23", "shelter": "no", "osm_type": "node", "osm_id": 8169339557}}, {"type": "Feature", "geometry": {"type": "Point", "coordinates": [-6.2179336, 53.3098719]}, "properties": {"bench": "no", "bin": "no", "bus": "yes", "covered": "no", "highway": "bus_stop", "kerb": "raised", "kerb:approach_aid": "no", "lit": "yes", "name": "#764 Stillorgan Road, UCD (set-down)", "network": "Dublin Bus", "network:wikidata": "Q1263090", "network:wikipedia": "en:Dublin Bus", "note": "Set-down stop only for buses that terminate on UCD campus.", "operator": "Dublin Bus", "passenger_information_display": "no", "public_transport": "platform", "ref": "764", "route_ref": "39a", "set_down": "yes", "shelter": "no", "website": "https://www.transportforireland.ie/plan-a-journey/live-departures/?stopId=8250DB000764", "osm_type": "node", "osm_id": 8347085448}}, {"type": "Feature", "geometry": {"type": "Point", "coordinates": [-6.2405406, 53.3449973]}, "properties": {"bench": "no", "bin": "no", "bus": "yes", "highway": "bus_stop", "lit": "yes", "name": "7558", "network": "Dublin Bus", "network:wikidata": "Q1263090", "network:wikipedia": "en:Dublin Bus", "operator": "Dublin Bus", "public_transport": "platform", "ref": "7558", "shelter": "no", "tactile_paving": "yes", "website": "https://www.transportforireland.ie/plan-a-journey/live-departures/?stopId=8220DB007558", "wheelchair": "yes", "osm_type": "node", "osm_id": 9512492352}}, {"type": "Feature", "geometry": {"type": "Point", "coordinates": [-6.2051252, 53.3413808]}, "properties": {"bench": "no", "bin": "no", "bus": "yes", "departures_board": "no", "highway": "bus_stop", "lit": "yes", "name": "Pidgeon House Road", "network": "Transport for Ireland", "network:wikidata": "Q17100681", "operator": "Dublin Bus", "public_transport": "platform", "ref": "360", "shelter": "no", "tactile_paving": "no", "tactile_writing:braille:en": "yes", "wheelchair": "limited", "wheelchair:description": "Kerb, but no Kassel kerb.", "osm_type": "node", "osm_id": 9753059548}}, {"type": "Feature", "geometry": {"type": "Point", "coordinates": [-6.2503982, 53.3414183]}, "properties": {"bench": "no", "bin": "yes", "bus": "yes", "departures_board": "timetable", "flag": "yes", "highway": "bus_stop", "lit": "yes", "name": "Dublin (Lower Merrion Street)", "name:en": "Dublin (Lower Merrion Street)", "name:ga": "Baile \u00c1tha Cliath (Sr\u00e1id Muirfean \u00cdochtarach)", "network": "Wexford Bus", "network:wikidata": "Q117196712", "operator": "Wexford Bus", "operator:website": "https://www.wexfordbus.com/", "operator:wikidata": "Q117196712", "passenger_information_display": "no", "pole": "yes", "public_transport": "platform", "route_ref": "740;740X", "shelter": "no", "website": "https://www.transportforireland.ie/plan-a-journey/live-departures/?stopId=8220B007612", "osm_type": "node", "osm_id": 9828759727}}, {"type": "Feature", "geometry": {"type": "Point", "coordinates": [-6.2144239, 53.3742473]}, "properties": {"bench": "no", "bus": "yes", "highway": "bus_stop", "name": "Parnell Park", "network": "Transport for Ireland", "network:website": "https://www.transportforireland.ie/", "network:wikidata": "Q17100681", "network:wikipedia": "en:National Transport Authority (Ireland)", "operator": "Dublin Bus", "passenger_information_display": "no", "public_transport": "platform", "route_ref": "N4", "shelter": "no", "osm_type": "node", "osm_id": 9934256405}}, {"type": "Feature", "geometry": {"type": "Point", "coordinates": [-6.2308282, 53.3602277]}, "properties": {"bench": "no", "bin": "no", "bus": "yes", "highway": "bus_stop", "name": "Eastpoint", "network": "Transport for Ireland", "network:website": "https://www.transportforireland.ie/", "network:wikidata": "Q17100681", "network:wikipedia": "en:National Transport Authority (Ireland)", "operator": "Dublin Bus", "public_transport": "platform", "route_ref": "N4", "shelter": "no", "tactile_paving": "yes", "osm_type": "node", "osm_id": 9934454745}}, {"type": "Feature", "geometry": {"type": "Point", "coordinates": [-6.2148097, 53.3538369]}, "properties": {"bench": "no", "bin": "no", "bus": "yes", "highway": "bus_stop", "lit": "yes", "public_transport": "platform", "shelter": "no", "tactile_paving": "no", "wheelchair": "limited", "osm_type": "node", "osm_id": 9942830264}}, {"type": "Feature", "geometry": {"type": "Point", "coordinates": [-6.2409559, 53.349767]}, "properties": {"bench": "no", "bin": "no", "bus": "yes", "highway": "bus_stop", "public_transport": "platform", "osm_type": "node", "osm_id": 10117409192}}, {"type": "Feature", "geometry": {"type": "Point", "coordinates": [-6.2092961, 53.3518175]}, "properties": {"bench": "no", "bin": "no", "bus": "yes", "fixme": "New stop. Review", "highway": "bus_stop", "lit": "yes", "name": "Bond Drive Extension, Dublin Port", "network": "Transport for Ireland", "network:website": "https://www.transportforireland.ie/", "network:wikidata": "Q17100681", "operator": "Dublin Bus", "operator:website": "http://www.dublinbus.ie/en/RTPI/Sources-of-Real-Time-Information/?searchtype=view&searchquery=7601", "public_transport": "platform", "ref": "7601", "route_ref": "53", "shelter": "no", "website": "https://www.transportforireland.ie/plan-a-journey/live-departures/?stopId=8220DB007601", "osm_type": "node", "osm_id": 10138681377}}, {"type": "Feature", "geometry": {"type": "Point", "coordinates": [-6.2624323, 53.3468638]}, "properties": {"bench": "no", "bin": "no", "bus": "yes", "check_date:shelter": "2025-10-19", "highway": "bus_stop", "lit": "yes", "name": "Bachelors Walk", "name:en": "Bachelors Walk", "name:ga": "Si\u00fal\u00e1n Bhaitsil\u00e9ir", "passenger_information_display": "no", "public_transport": "platform", "ref": "102111", "route_ref": "761;763;842;845;847", "shelter": "no", "tactile_paving": "no", "osm_type": "node", "osm_id": 10282456768}}, {"type": "Feature", "geometry": {"type": "Point", "coordinates": [-6.251, 53.3394869]}, "properties": {"bench": "no", "bin": "no", "bus": "yes", "departures_board": "no", "description": "Set Down Only", "highway": "bus_stop", "lit": "yes", "name": "Merrion Square", "network": "Dublin Bus", "network:wikidata": "Q1263090", "operator": "Dublin Bus", "platforms": "1", "public_transport": "platform", "ref": "7390", "shelter": "no", "stop": "stop_exit_only", "tactile_paving": "no", "osm_type": "node", "osm_id": 10735429549}}, {"type": "Feature", "geometry": {"type": "Point", "coordinates": [-6.250499, 53.339311]}, "properties": {"bench": "no", "bin": "no", "bus": "yes", "departures_board": "no", "description": "Set Down Only", "highway": "bus_stop", "lit": "yes", "name": "Merrion Square", "network": "Dublin Bus", "network:wikidata": "Q1263090", "operator": "Dublin Bus", "platforms": "1", "public_transport": "platform", "ref": "7385", "shelter": "no", "stop": "stop_exit_only", "tactile_paving": "no", "osm_type": "node", "osm_id": 10735429550}}, {"type": "Feature", "geometry": {"type": "Point", "coordinates": [-6.1715602, 53.377472]}, "properties": {"bench": "no", "bin": "no", "bus": "yes", "highway": "bus_stop", "lit": "yes", "name": "St. Anne's Pitches", "network": "Transport for Ireland", "network:website": "https://www.transportforireland.ie/", "network:wikidata": "Q17100681", "network:wikipedia": "en:National Transport Authority (Ireland)", "operator": "Dublin Bus", "public_transport": "platform", "ref": "7727", "shelter": "no", "tactile_paving": "no", "website": "https://www.transportforireland.ie/plan-a-journey/live-departures/?stopId=8220DB007727", "osm_type": "node", "osm_id": 10957488906}}, {"type": "Feature", "geometry": {"type": "Point", "coordinates": [-6.166237, 53.3748307]}, "properties": {"bench": "no", "bin": "yes", "bus": "yes", "highway": "bus_stop", "lit": "yes", "name": "Watermill Road", "network": "Transport for Ireland", "network:website": "https://www.transportforireland.ie/", "network:wikidata": "Q17100681", "network:wikipedia": "en:National Transport Authority (Ireland)", "operator": "Dublin Bus", "public_transport": "platform", "ref": "7728", "route_ref": "6", "shelter": "no", "tactile_paving": "no", "website": "https://www.transportforireland.ie/plan-a-journey/live-departures/?stopId=8220DB007728", "osm_type": "node", "osm_id": 10957494308}}, {"type": "Feature", "geometry": {"type": "Point", "coordinates": [-6.2452535, 53.3970479]}, "properties": {"bench": "yes", "bin": "yes", "bus": "yes", "highway": "bus_stop", "lit": "yes", "name": "Santry Villas", "network": "Transport for Ireland", "network:website": "https://www.transportforireland.ie/", "network:wikidata": "Q17100681", "network:wikipedia": "en:National Transport Authority (Ireland)", "operator": "Go-Ahead Ireland", "operator:website": "https://www.goaheadireland.ie/", "public_transport": "platform", "ref": "7847", "route_ref": "N6", "shelter": "no", "tactile_paving": "yes", "website": "https://www.transportforireland.ie/plan-a-journey/live-departures/?stopId=8240GD007847", "osm_type": "node", "osm_id": 11205964326}}, {"type": "Feature", "geometry": {"type": "Point", "coordinates": [-6.2254506, 53.3580018]}, "properties": {"bus": "yes", "highway": "bus_stop", "public_transport": "platform", "osm_type": "node", "osm_id": 11358046301}}, {"type": "Feature", "geometry": {"type": "Point", "coordinates": [-6.2906935, 53.3478867]}, "properties": {"bench": "no", "bin": "no", "bus": "yes", "highway": "bus_stop", "name": "Parkgate Street", "network": "Transport for Ireland", "network:website": "https://www.transportforireland.ie/", "network:wikidata": "Q17100681", "public_transport": "platform", "shelter": "no", "osm_type": "node", "osm_id": 11386412512}}, {"type": "Feature", "geometry": {"type": "Point", "coordinates": [-6.2528873, 53.3473558]}, "properties": {"bus": "yes", "departures_board": "no", "highway": "bus_stop", "name": "George's Quay", "network": "Nolan on behalf of Irish Ferries", "operator": "Nolan", "public_transport": "platform", "shelter": "no", "osm_type": "node", "osm_id": 11894210692}}, {"type": "Feature", "geometry": {"type": "Point", "coordinates": [-6.2799988, 53.3798601]}, "properties": {"bench": "no", "bin": "no", "bus": "yes", "highway": "bus_stop", "lit": "no", "name": "Griffith Avenue", "network": "Dublin Bus", "network:wikidata": "Q1263090", "operator": "Dublin Bus", "public_transport": "platform", "ref": "7430", "shelter": "no", "tactile_paving": "no", "website": "https://www.transportforireland.ie/plan-a-journey/live-departures/?stopId=8220DB007430", "osm_type": "node", "osm_id": 12107025219}}, {"type": "Feature", "geometry": {"type": "Point", "coordinates": [-6.2800784, 53.379765]}, "properties": {"bench": "no", "bin": "no", "bus": "yes", "highway": "bus_stop", "lit": "no", "name": "Griffith Ave Ext", "network": "Dublin Bus", "network:wikidata": "Q1263090", "operator": "Dublin Bus", "public_transport": "platform", "ref": "7431", "shelter": "no", "tactile_paving": "no", "website": "https://www.transportforireland.ie/plan-a-journey/live-departures/?stopId=8220DB007431", "osm_type": "node", "osm_id": 12107025220}}, {"type": "Feature", "geometry": {"type": "Point", "coordinates": [-6.2610857, 53.3340682]}, "properties": {"bus": "yes", "highway": "bus_stop", "name": "Harcourt Luas, Kelly's Corner", "network": "Transport for Ireland", "network:wikidata": "Q17100681", "network:wikipedia": "en:National Transport Authority (Ireland)", "operator": "Dublin Bus;Dublin Express", "public_transport": "platform", "ref": "1074", "osm_type": "node", "osm_id": 12352482001}}, {"type": "Feature", "geometry": {"type": "Point", "coordinates": [-6.2720072, 53.3434664]}, "properties": {"bus": "yes", "highway": "bus_stop", "name": "Winetavern Street, Liberties", "operator": "Dublin Express", "public_transport": "platform", "osm_type": "node", "osm_id": 12352482002}}, {"type": "Feature", "geometry": {"type": "Point", "coordinates": [-6.2738116, 53.4030201]}, "properties": {"bench": "yes", "bin": "no", "bus": "yes", "highway": "bus_stop", "lit": "yes", "name": "Gallaun Road", "network": "Transport for Ireland", "network:wikidata": "Q17100681", "network:wikipedia": "en:National Transport Authority (Ireland)", "operator": "Dublin Bus", "public_transport": "platform", "ref": "8245", "shelter": "yes", "tactile_paving": "yes", "website": "https://www.transportforireland.ie/plan-a-journey/live-departures/?stopId=8240DB000327", "osm_type": "node", "osm_id": 12543612320}}, {"type": "Feature", "geometry": {"type": "Point", "coordinates": [-6.2569432, 53.3369161]}, "properties": {"bin": "yes", "bus": "yes", "highway": "bus_stop", "lit": "yes", "name": "Saint Stephen's Green East", "network": "Transport for Ireland", "network:wikidata": "Q17100681", "network:wikipedia": "en:National Transport Authority (Ireland)", "operator": "Dublin Bus", "public_transport": "platform", "ref": "8001", "shelter": "no", "website": "https://www.transportforireland.ie/plan-a-journey/live-departures/?stopId=8240DB000327", "osm_type": "node", "osm_id": 12547111898}}, {"type": "Feature", "geometry": {"type": "Point", "coordinates": [-6.2605682, 53.3369678]}, "properties": {"bus": "yes", "highway": "bus_stop", "name": "Saint Stephen's Green South", "network": "Transport for Ireland", "network:wikidata": "Q17100681", "network:wikipedia": "en:National Transport Authority (Ireland)", "public_transport": "platform", "ref": "7996", "osm_type": "node", "osm_id": 13699427500}}, {"type": "Feature", "geometry": {"type": "Point", "coordinates": [-6.2794442, 53.3899919]}, "properties": {"bus": "yes", "highway": "bus_stop", "name": "Glasnevin Avenue", "network": "Transport for Ireland", "network:wikidata": "Q17100681", "network:wikipedia": "en:National Transport Authority (Ireland)", "operator": "Dublin Bus", "public_transport": "platform", "ref": "8256", "website": "https://www.transportforireland.ie/plan-a-journey/live-departures/?stopId=8240DB000327", "osm_type": "node", "osm_id": 13704042218}}, {"type": "Feature", "geometry": {"type": "Point", "coordinates": [-6.279577, 53.3899287]}, "properties": {"bus": "yes", "highway": "bus_stop", "name": "Glasnevin Avenue", "network": "Transport for Ireland", "network:wikidata": "Q17100681", "network:wikipedia": "en:National Transport Authority (Ireland)", "operator": "Dublin Bus", "public_transport": "platform", "ref": "8259", "website": "https://www.transportforireland.ie/plan-a-journey/live-departures/?stopId=8240DB000327", "osm_type": "node", "osm_id": 13704042219}}, {"type": "Feature", "geometry": {"type": "Point", "coordinates": [-6.2500821, 53.3426814]}, "properties": {"bench": "no", "bus": "yes", "highway": "bus_stop", "name": "Westland Row", "network": "Transport for Ireland", "network:wikidata": "Q17100681", "network:wikipedia": "en:National Transport Authority (Ireland)", "public_transport": "platform", "ref": "111761", "shelter": "no", "website": "https://www.transportforireland.ie/plan-a-journey/live-departures/?stopId=8220DB002962", "osm_type": "node", "osm_id": 13709105471}}, {"type": "Feature", "geometry": {"type": "Point", "coordinates": [-6.2778658, 53.3698689]}, "properties": {"bus": "yes", "highway": "bus_stop", "name": "Glasnevin Cemetery", "network": "Transport for Ireland", "network:wikidata": "Q17100681", "network:wikipedia": "en:National Transport Authority (Ireland)", "note": "Bus \u00c9ireann drop off only", "public_transport": "platform", "ref": "101151", "osm_type": "node", "osm_id": 13898631944}}]}