{"type":"FeatureCollection","features":[{"type":"Feature","geometry":{"type":"Point","coordinates":[-6.2552959,53.325159]},"properties":{"addr:street":"Cullenswood Road","amenity":"taxi","capacity":"6","operator":"Dublin City Council","osm_type":"node","osm_id":312168115}},{"type":"Feature","geometry":{"type":"Point","coordinates":[-6.2466522,53.3334193]},"properties":{"amenity":"taxi","osm_type":"node","osm_id":323867085}},{"type":"Feature","geometry":{"type":"Point","coordinates":[-6.2962254,53.3672142]},"properties":{"amenity":"taxi","name":"Faussagh Avenue","operator":"Dublin City Council","osm_type":"node","osm_id":440860778}},{"type":"Feature","geometry":{"type":"Point","coordinates":[-6.2826898,53.3120319]},"properties":{"amenity":"taxi","capacity":"6","check_date":"2026-05-18","shelter":"yes","osm_type":"node","osm_id":497114466}},{"type":"Feature","geometry":{"type":"Point","coordinates":[-6.2350305,53.3324667]},"properties":{"amenity":"taxi","osm_type":"node","osm_id":564978997}},{"type":"Feature","geometry":{"type":"Point","coordinates":[-6.2805799,53.3429746]},"properties":{"amenity":"taxi","check_date":"2024-03-03","osm_type":"node","osm_id":593642486}},{"type":"Feature","geometry":{"type":"Point","coordinates":[-6.2600824,53.339864]},"properties":{"amenity":"taxi","check_date":"2024-06-22","osm_type":"node","osm_id":593642487}},{"type":"Feature","geometry":{"type":"Point","coordinates":[-6.2600073,53.3444523]},"properties":{"amenity":"taxi","check_date":"2023-02-24","osm_type":"node","osm_id":593642488}},{"type":"Feature","geometry":{"type":"Point","coordinates":[-6.2634674,53.3442281]},"properties":{"amenity":"taxi","check_date":"2023-02-09","osm_type":"node","osm_id":593642489}},{"type":"Feature","geometry":{"type":"Point","coordinates":[-6.291131,53.3199156]},"properties":{"amenity":"taxi","capacity":"3","name":"Sundrive Road","operator":"Dublin City Council","osm_type":"node","osm_id":601140406}},{"type":"Feature","geometry":{"type":"Point","coordinates":[-6.2611209,53.3446062]},"properties":{"amenity":"taxi","check_date":"2023-05-05","name":"Foster Place","osm_type":"node","osm_id":641811578}},{"type":"Feature","geometry":{"type":"Point","coordinates":[-6.1627267,53.3957016]},"properties":{"amenity":"taxi","osm_type":"node","osm_id":811533560}},{"type":"Feature","geometry":{"type":"Point","coordinates":[-6.2603275,53.3467008]},"properties":{"amenity":"taxi","check_date":"2026-08-19","name":"Aston Quay","operator":"Dublin City Council","osm_type":"node","osm_id":830650155}},{"type":"Feature","geometry":{"type":"Point","coordinates":[-6.2117527,53.3955983]},"properties":{"amenity":"taxi","capacity":"10","name":"Barryscourt Road","operator":"Dublin City Council","phone":"+353 1 847 4000","osm_type":"node","osm_id":859127395}},{"type":"Feature","geometry":{"type":"Point","coordinates":[-6.2940502,53.346083]},"properties":{"amenity":"taxi","check_date":"2026-02-09","osm_type":"node","osm_id":975320532}},{"type":"Feature","geometry":{"type":"Point","coordinates":[-6.2958684,53.3482338]},"properties":{"amenity":"taxi","osm_type":"node","osm_id":984249288}},{"type":"Feature","geometry":{"type":"Point","coordinates":[-6.257636,53.3352784]},"properties":{"amenity":"taxi","osm_type":"node","osm_id":1348263282}},{"type":"Feature","geometry":{"type":"Point","coordinates":[-6.2450566,53.349418]},"properties":{"amenity":"taxi","wheelchair":"yes","osm_type":"node","osm_id":1497890120}},{"type":"Feature","geometry":{"type":"Point","coordinates":[-6.2877678,53.3368949]},"properties":{"addr:city":"Dublin","addr:street":"Cork Street","amenity":"taxi","name":"Reidy's Cabs","phone":"+353 1 473 0500","osm_type":"node","osm_id":2006222007}},{"type":"Feature","geometry":{"type":"Point","coordinates":[-6.3159909,53.3204121]},"properties":{"amenity":"taxi","osm_type":"node","osm_id":2995287586}},{"type":"Feature","geometry":{"type":"Point","coordinates":[-6.2552759,53.3323507]},"properties":{"amenity":"taxi","osm_type":"node","osm_id":2998488441}},{"type":"Feature","geometry":{"type":"Point","coordinates":[-6.2993757,53.3898363]},"properties":{"amenity":"taxi","name":"Exchequers Taxi","phone":"+353 1 8343435","osm_type":"node","osm_id":2998841762}},{"type":"Feature","geometry":{"type":"Point","coordinates":[-6.2597075,53.3475079]},"properties":{"amenity":"taxi","capacity":"6","name":"Bachelors Walk (Rank 1)","opening_hours":"Mo-Su 20:00-06:00","operator":"Dublin City Council","website":"http://www.dublincity.ie/main-menu-services-roads-and-traffic-general-traffic-measures/taxi-ranks","osm_type":"node","osm_id":3005525289}},{"type":"Feature","geometry":{"type":"Point","coordinates":[-6.2854556,53.3931672]},"properties":{"addr:city":"Dublin","addr:street":"Willow Park Crescent","amenity":"taxi","name":"Co-op Cabs","phone":"+353 1 8642020","osm_type":"node","osm_id":3005763612}},{"type":"Feature","geometry":{"type":"Point","coordinates":[-6.2573462,53.339155]},"properties":{"amenity":"taxi","check_date":"2025-10-19","osm_type":"node","osm_id":3044925019}},{"type":"Feature","geometry":{"type":"Point","coordinates":[-6.2721391,53.3897663]},"properties":{"addr:city":"Dublin","addr:street":"Glasnevin Avenue","amenity":"taxi","name":"Autobahn Cabs","phone":"+353 1 842 4444","osm_type":"node","osm_id":3059759267}},{"type":"Feature","geometry":{"type":"Point","coordinates":[-6.2894864,53.3432323]},"properties":{"addr:city":"Dublin","addr:housenumber":"40","addr:street":"James Street","amenity":"taxi","name":"National Radio Cabs","operator":"National Radio Cabs","phone":"+353 1 677 2222","website":"https://www.nrc.ie/","osm_type":"node","osm_id":3089037843}},{"type":"Feature","geometry":{"type":"Point","coordinates":[-6.2708002,53.3429561]},"properties":{"addr:street":"Christchurch Place","amenity":"taxi","brand":"Leonardo Hotels","capacity":"4","name":"Leonardo Hotel Dublin Christchurch","old_name":"Jury's Inn","osm_type":"node","osm_id":3092066445}},{"type":"Feature","geometry":{"type":"Point","coordinates":[-6.2659379,53.3214531]},"properties":{"amenity":"taxi","capacity":"15","name":"Rathmines Road Upper","operator":"Dublin City Council","osm_type":"node","osm_id":3623246096}},{"type":"Feature","geometry":{"type":"Point","coordinates":[-6.2502174,53.3507288]},"properties":{"amenity":"taxi","capacity":"8","name":"Amiens Street","operator":"Dublin City Council","osm_type":"node","osm_id":3623251757}},{"type":"Feature","geometry":{"type":"Point","coordinates":[-6.26017,53.3473698]},"properties":{"amenity":"taxi","capacity":"11","name":"Bachelors Walk (Rank 2)","opening_hours":"Mo-Su 20:00-06:00","operator":"Dublin City Council","osm_type":"node","osm_id":3623255289}},{"type":"Feature","geometry":{"type":"Point","coordinates":[-6.2622337,53.3468897]},"properties":{"amenity":"taxi","capacity":"11","name":"Bachelors Walk (Rank 3)","operator":"Dublin City Council","osm_type":"node","osm_id":3623255290}},{"type":"Feature","geometry":{"type":"Point","coordinates":[-6.3524804,53.3420296]},"properties":{"amenity":"taxi","capacity":"4","name":"Ballyfermot Road (Rank 1)","operator":"Dublin City Council","osm_type":"node","osm_id":3623259602}},{"type":"Feature","geometry":{"type":"Point","coordinates":[-6.3523061,53.3416052]},"properties":{"amenity":"taxi","capacity":"8","name":"Ballyfermot Road (Rank 2)","operator":"Dublin City Council","osm_type":"node","osm_id":3623259603}},{"type":"Feature","geometry":{"type":"Point","coordinates":[-6.2614607,53.3412499]},"properties":{"amenity":"taxi","capacity":"3","name":"Balfe Street","operator":"Dublin City Council","osm_type":"node","osm_id":3623261789}},{"type":"Feature","geometry":{"type":"Point","coordinates":[-6.2365706,53.3397758]},"properties":{"addr:street":"Barrow Street","amenity":"taxi","capacity":"4","name":"Barrow Street","operator":"Dublin City Council","osm_type":"node","osm_id":3623272790}},{"type":"Feature","geometry":{"type":"Point","coordinates":[-6.2920349,53.3341318]},"properties":{"amenity":"taxi","name":"SCR & Coombe Cabs","osm_type":"node","osm_id":4266245725}},{"type":"Feature","geometry":{"type":"Point","coordinates":[-6.3005931,53.3296114]},"properties":{"amenity":"taxi","osm_type":"node","osm_id":4485234279}},{"type":"Feature","geometry":{"type":"Point","coordinates":[-6.2608029,53.351567]},"properties":{"amenity":"taxi","capacity":"3","operator":"Dublin City Council","osm_type":"node","osm_id":5300250097}},{"type":"Feature","geometry":{"type":"Point","coordinates":[-6.2632443,53.3468333]},"properties":{"amenity":"taxi","opening_hours":"Night only","operator":"Dublin City Council","osm_type":"node","osm_id":5376941075}},{"type":"Feature","geometry":{"type":"Point","coordinates":[-6.2238884,53.3899186]},"properties":{"amenity":"taxi","name":"Beaumont Hospital","operator":"Beaumont Hospital","osm_type":"node","osm_id":5421220128}},{"type":"Feature","geometry":{"type":"Point","coordinates":[-6.2552055,53.3250381]},"properties":{"addr:street":"Cullenswood Road","amenity":"taxi","capacity":"6","operator":"Dublin City Council","osm_type":"node","osm_id":5444030295}},{"type":"Feature","geometry":{"type":"Point","coordinates":[-6.2660248,53.3375044]},"properties":{"addr:city":"Dublin","addr:street":"Kevin Street Lower","amenity":"taxi","name":"____ Cabs","note":"Taxi office","osm_type":"node","osm_id":5502337463}},{"type":"Feature","geometry":{"type":"Point","coordinates":[-6.3126774,53.3852365]},"properties":{"amenity":"taxi","name":"Cardiffsbridge Road","operator":"Dublin City Council","osm_type":"node","osm_id":5555502383}},{"type":"Feature","geometry":{"type":"Point","coordinates":[-6.2606893,53.3519746]},"properties":{"amenity":"taxi","operator":"Dublin City Council","osm_type":"node","osm_id":5579666109}},{"type":"Feature","geometry":{"type":"Point","coordinates":[-6.2495169,53.3300129]},"properties":{"amenity":"taxi","bench":"yes","bin":"no","check_date:shelter":"2023-02-28","public_transport":"platform","shelter":"yes","tactile_paving":"no","osm_type":"node","osm_id":5859744466}},{"type":"Feature","geometry":{"type":"Point","coordinates":[-6.2864822,53.3373493]},"properties":{"addr:city":"Dublin","addr:housenumber":"90-97","addr:street":"Cork Street","amenity":"taxi","description":"VIP Taxis is a leading corporate taxi company, located in Dublin, Ireland.","email":"info@viptaxis.ie","name":"VIP Taxis","operator":"VIP Taxis","payment:american_express":"yes","payment:cash":"yes","payment:credit_cards":"yes","payment:debit_cards":"yes","payment:mastercard":"yes","payment:visa":"yes","phone":"+35314783333","website":"https://viptaxis.ie","osm_type":"node","osm_id":6029393333}},{"type":"Feature","geometry":{"type":"Point","coordinates":[-6.2182916,53.375181]},"properties":{"amenity":"taxi","capacity":"2","operator":"Dublin City Council","osm_type":"node","osm_id":6033191307}},{"type":"Feature","geometry":{"type":"Point","coordinates":[-6.1508368,53.4029745]},"properties":{"amenity":"taxi","osm_type":"node","osm_id":6077712301}},{"type":"Feature","geometry":{"type":"Point","coordinates":[-6.2648736,53.3420749]},"properties":{"amenity":"taxi","operator":"Dublin City Council","osm_type":"node","osm_id":6185220675}},{"type":"Feature","geometry":{"type":"Point","coordinates":[-6.258332,53.3464471]},"properties":{"amenity":"taxi","osm_type":"node","osm_id":6245850760}},{"type":"Feature","geometry":{"type":"Point","coordinates":[-6.2628437,53.3962651]},"properties":{"amenity":"taxi","operator":"Dublin City Council","osm_type":"node","osm_id":6248574928}},{"type":"Feature","geometry":{"type":"Point","coordinates":[-6.3263691,53.3240864]},"properties":{"addr:city":"Dublin","addr:housenumber":"161","addr:street":"Drimnagh Road","amenity":"taxi","name":"Halfway Cabs","phone":"+35314551122","osm_type":"node","osm_id":6330695509}},{"type":"Feature","geometry":{"type":"Point","coordinates":[-6.1946788,53.3456944]},"properties":{"amenity":"taxi","osm_type":"node","osm_id":12085863808}},{"type":"Feature","geometry":{"type":"Point","coordinates":[-6.2482913,53.3927956]},"properties":{"amenity":"taxi","osm_type":"node","osm_id":12127459185}},{"type":"Feature","geometry":{"type":"Point","coordinates":[-6.2469145,53.3774155]},"properties":{"amenity":"taxi","capacity":"1","osm_type":"node","osm_id":13479219415}},{"type":"Feature","geometry":{"type":"Point","coordinates":[-6.2610629,53.3449855]},"properties":{"amenity":"taxi","osm_type":"node","osm_id":13902095081}},{"type":"Feature","geometry":{"type":"Point","coordinates":[-6.2609931,53.3447577]},"properties":{"amenity":"taxi","osm_type":"node","osm_id":13902095082}},{"type":"Feature","geometry":{"type":"LineString","coordinates":[[-6.2291416,53.3645197],[-6.2291411,53.3645659],[-6.2291299,53.3646423],[-6.2291216,53.3646608],[-6.2291541,53.3646515],[-6.229165,53.3646466],[-6.2291785,53.3645362],[-6.2291715,53.3645306],[-6.2291416,53.3645197]]},"properties":{"amenity":"taxi","capacity":"3","name":"Marino Crescent","operator":"Dublin City Council","shelter":"yes","osm_type":"way","osm_id":346326414}},{"type":"Feature","geometry":{"type":"LineString","coordinates":[[-6.2931454,53.3670968],[-6.2930631,53.3670854],[-6.2930942,53.3670055],[-6.2931765,53.3670169],[-6.2931454,53.3670968]]},"properties":{"addr:city":"Dublin","addr:country":"IE","addr:housenumber":"28","addr:street":"Fassaugh Avenue","amenity":"taxi","building":"commercial","building:colour":"red","building:levels":"2","building:material":"brick","name":"Local Cabs","opening_hours":"Mo-Sa 09:00-18:00","phone":"+353 1 8388344","roof:shape":"gabled_row","osm_type":"way","osm_id":973141965}},{"type":"Feature","geometry":{"type":"LineString","coordinates":[[-6.2522723,53.3378999],[-6.2520625,53.3378583],[-6.2520751,53.3378356],[-6.252285,53.3378768],[-6.2522723,53.3378999]]},"properties":{"amenity":"taxi","osm_type":"way","osm_id":1268366786}}]}